{"type": "FeatureCollection", "features": [{"type": "Feature", "properties": {"vehicle": 1, "time_min": 116.976, "distance_km": 41.177, "co2_kg": 12.2582}, "geometry": {"type": "LineString", "coordinates": [[78.447626, 17.473585], [78.446662, 17.469585], [78.446262, 17.467945], [78.446224, 17.467761], [78.446466, 17.467661], [78.446419, 17.467503], [78.4464, 17.467395], [78.446348, 17.46723], [78.446299, 17.467086], [78.446736, 17.466877], [78.44671, 17.466752], [78.447557, 17.466333], [78.447921, 17.466177], [78.448612, 17.465825], [78.448878, 17.465694], [78.449042, 17.465617], [78.449195, 17.465551], [78.449375, 17.465471], [78.45026, 17.465071], [78.450114, 17.46479], [78.449082, 17.465296], [78.44911, 17.464761], [78.449357, 17.463192], [78.44937, 17.463003], [78.449419, 17.461879], [78.449437, 17.461569], [78.449514, 17.460428], [78.449564, 17.460021], [78.449668, 17.45948], [78.449871, 17.459073], [78.450078, 17.458664], [78.450225, 17.458233], [78.450329, 17.451645], [78.450273, 17.450221], [78.449976, 17.449278], [78.449872, 17.448947], [78.449688, 17.448411], [78.449585, 17.44808], [78.449294, 17.44717], [78.449121, 17.446668], [78.449061, 17.446681], [78.448311, 17.446427], [78.448234, 17.446337], [78.447974, 17.445764], [78.44772, 17.44538], [78.44771, 17.44533], [78.447546, 17.445331], [78.447301, 17.444392], [78.447166, 17.443936], [78.447278, 17.443911], [78.447196, 17.443391], [78.44716, 17.443161], [78.446906, 17.443196], [78.446838, 17.442798], [78.446775, 17.442368], [78.446662, 17.441783], [78.447469, 17.441609], [78.447512, 17.441599], [78.447371, 17.440993], [78.447291, 17.440588], [78.447221, 17.440258], [78.447164, 17.439969], [78.447092, 17.439625], [78.446976, 17.4389], [78.44638, 17.438983], [78.446321, 17.438546], [78.445935, 17.43859], [78.445323, 17.43866], [78.445124, 17.437136], [78.445128, 17.436887], [78.444321, 17.436771], [78.444147, 17.436609], [78.444289, 17.436383], [78.445157, 17.435059], [78.445149, 17.434938], [78.445759, 17.434094], [78.446026, 17.433788], [78.446608, 17.433102], [78.447042, 17.432577], [78.447269, 17.432327], [78.447566, 17.43199], [78.447958, 17.431618], [78.447905, 17.43156], [78.447756, 17.431663], [78.446202, 17.430868], [78.445388, 17.430881], [78.445361, 17.43065], [78.444972, 17.430738], [78.444327, 17.430922], [78.443935, 17.430964], [78.443898, 17.430143], [78.4439, 17.430068], [78.442419, 17.428858], [78.440941, 17.428822], [78.439592, 17.428786], [78.439524, 17.428784], [78.43803, 17.428865], [78.436554, 17.429015], [78.43598, 17.428656], [78.435425, 17.428279], [78.435331, 17.427997], [78.4352, 17.427796], [78.434166, 17.427453], [78.433841, 17.427468], [78.432911, 17.427536], [78.432838, 17.427532], [78.432813, 17.427228], [78.433033, 17.426323], [78.433458, 17.425084], [78.43349, 17.424988], [78.432792, 17.424818], [78.432949, 17.423822], [78.432249, 17.42396], [78.431584, 17.423176], [78.431, 17.422251], [78.43221, 17.421992], [78.430831, 17.422207], [78.430757, 17.421836], [78.430734, 17.42162], [78.430703, 17.421414], [78.430603, 17.420767], [78.430563, 17.420503], [78.430473, 17.419911], [78.43035, 17.419252], [78.430345, 17.418793], [78.429362, 17.418827], [78.429342, 17.418058], [78.429111, 17.417321], [78.429124, 17.417258], [78.428902, 17.417081], [78.428796, 17.417139], [78.427903, 17.417522], [78.42791, 17.417629], [78.427903, 17.417522], [78.426065, 17.41595], [78.426001, 17.415769], [78.425595, 17.414638], [78.425587, 17.414576], [78.425475, 17.414467], [78.425387, 17.414459], [78.425198, 17.41442], [78.424452, 17.414189], [78.424224, 17.414169], [78.423646, 17.414197], [78.422471, 17.41458], [78.421666, 17.414963], [78.419768, 17.415866], [78.419633, 17.415969], [78.417988, 17.416611], [78.417389, 17.416892], [78.41562, 17.417287], [78.415468, 17.417324], [78.4147, 17.417537], [78.414162, 17.417705], [78.413175, 17.418311], [78.412537, 17.419138], [78.411674, 17.418394], [78.411613, 17.418301], [78.41151, 17.418364], [78.410862, 17.421122], [78.410727, 17.421136], [78.410338, 17.421196], [78.410236, 17.421216], [78.409799, 17.421338], [78.409342, 17.421446], [78.408913, 17.421557], [78.408481, 17.421671], [78.407984, 17.421807], [78.407087, 17.422058], [78.406647, 17.422296], [78.404745, 17.423197], [78.403795, 17.423772], [78.402266, 17.4243], [78.401983, 17.424397], [78.400941, 17.424753], [78.400303, 17.424982], [78.400233, 17.425], [78.400126, 17.425069], [78.399622, 17.425156], [78.39803, 17.425541], [78.397846, 17.425848], [78.396236, 17.425532], [78.395114, 17.425048], [78.395373, 17.42433], [78.395455, 17.424052], [78.39553, 17.423875], [78.394626, 17.423393], [78.394732, 17.422911], [78.39483, 17.422297], [78.394263, 17.422243], [78.394184, 17.423158], [78.39414, 17.423636], [78.394008, 17.424236], [78.392462, 17.423106], [78.389606, 17.417792], [78.389704, 17.417725], [78.390775, 17.417082], [78.390673, 17.416849], [78.39021, 17.417097], [78.389595, 17.417457], [78.389461, 17.417529], [78.388647, 17.418009], [78.388408, 17.418145], [78.387331, 17.418981], [78.385727, 17.420193], [78.382527, 17.422372], [78.382141, 17.422568], [78.381973, 17.422659], [78.38156, 17.422927], [78.380516, 17.423718], [78.38002, 17.424123], [78.379399, 17.424638], [78.379014, 17.424982], [78.377257, 17.426268], [78.374523, 17.428894], [78.373796, 17.42976], [78.373526, 17.43001], [78.373026, 17.430438], [78.37208, 17.431178], [78.371977, 17.431034], [78.37135, 17.431531], [78.370361, 17.432289], [78.370456, 17.432401], [78.369971, 17.4329], [78.369474, 17.433428], [78.369201, 17.4331], [78.368868, 17.432698], [78.368753, 17.43256], [78.368441, 17.432184], [78.368287, 17.432294], [78.367923, 17.432556], [78.366854, 17.433324], [78.366599, 17.432983], [78.366235, 17.432498], [78.365888, 17.432736], [78.365503, 17.433], [78.365158, 17.433237], [78.364899, 17.432861], [78.364526, 17.433105], [78.365385, 17.43438], [78.365859, 17.435043], [78.366009, 17.435277], [78.366605, 17.436206], [78.364987, 17.437534], [78.365166, 17.437747], [78.365918, 17.437134], [78.366088, 17.437333], [78.3662, 17.437464], [78.366393, 17.437787], [78.365995, 17.437927], [78.366144, 17.438231], [78.36652, 17.439121], [78.366675, 17.439736], [78.366864, 17.440652], [78.36624, 17.4411], [78.365405, 17.441436], [78.365356, 17.441282], [78.365133, 17.44142], [78.364881, 17.441568], [78.364574, 17.441719], [78.364464, 17.441536], [78.364226, 17.441084], [78.364154, 17.440916], [78.364226, 17.441084], [78.364464, 17.441536], [78.364574, 17.441719], [78.364881, 17.441568], [78.364427, 17.440778], [78.364422, 17.440319], [78.364443, 17.440004], [78.364135, 17.439997], [78.364142, 17.439677], [78.364151, 17.439324], [78.364142, 17.439677], [78.364135, 17.439997], [78.364443, 17.440004], [78.364464, 17.439374], [78.364384, 17.438384], [78.364608, 17.438199], [78.369158, 17.440607], [78.369325, 17.440558], [78.371009, 17.440167], [78.37151, 17.439974], [78.371626, 17.43995], [78.371794, 17.442128], [78.371818, 17.442216], [78.373853, 17.441511], [78.374731, 17.4411], [78.375428, 17.440666], [78.376955, 17.439826], [78.376989, 17.43986], [78.376998, 17.440001], [78.377011, 17.441322], [78.376095, 17.441307], [78.375577, 17.441299], [78.37556, 17.44217], [78.375378, 17.442169], [78.375033, 17.442172], [78.37484, 17.442175], [78.374843, 17.442679], [78.37484, 17.442175], [78.375033, 17.442172], [78.375378, 17.442169], [78.37556, 17.44217], [78.376095, 17.442184], [78.377136, 17.442195], [78.37711, 17.443422], [78.374314, 17.447984], [78.374402, 17.447994], [78.374475, 17.447747], [78.376845, 17.443543], [78.37709, 17.443778], [78.37782, 17.446986], [78.37945, 17.450281], [78.380448, 17.451218], [78.380604, 17.45104], [78.379548, 17.450236], [78.379459, 17.449896], [78.379181, 17.448752], [78.378831, 17.448121], [78.378277, 17.447527], [78.377764, 17.446712], [78.37846, 17.446353], [78.378956, 17.447155], [78.379824, 17.44695], [78.381037, 17.446646], [78.381103, 17.446899], [78.381547, 17.446788], [78.382027, 17.44667], [78.382468, 17.446557], [78.383778, 17.446023], [78.384272, 17.445424], [78.384998, 17.446012], [78.385062, 17.446076], [78.385174, 17.446158], [78.384739, 17.446696], [78.384839, 17.446769], [78.385844, 17.44557], [78.385892, 17.446047], [78.38677, 17.445104], [78.387117, 17.445343], [78.387149, 17.445388], [78.387602, 17.445253], [78.387766, 17.445896], [78.388185, 17.445819], [78.388444, 17.445961], [78.38876, 17.446123], [78.389149, 17.446332], [78.389223, 17.44637], [78.389885, 17.446697], [78.389324, 17.445927], [78.389885, 17.446697], [78.389989, 17.446735], [78.390508, 17.446785], [78.390564, 17.446324], [78.391206, 17.445365], [78.391342, 17.444602], [78.391437, 17.444359], [78.391615, 17.443735], [78.39185, 17.443526], [78.391749, 17.443225], [78.391655, 17.442844], [78.391614, 17.442406], [78.392504, 17.442185], [78.392572, 17.442562], [78.393222, 17.442425], [78.393478, 17.443143], [78.39354, 17.4433], [78.39364, 17.443264], [78.395864, 17.442403], [78.396371, 17.443355], [78.396759, 17.443236], [78.396964, 17.443878], [78.397166, 17.44461], [78.397604, 17.445966], [78.398101, 17.445828], [78.398595, 17.44569], [78.399111, 17.445543], [78.399448, 17.446567], [78.399918, 17.446454], [78.400191, 17.446379], [78.400666, 17.446243], [78.401251, 17.44687], [78.401512, 17.446799], [78.401708, 17.447289], [78.404618, 17.447768], [78.404664, 17.44802], [78.404703, 17.448258], [78.404732, 17.448452], [78.40477, 17.448677], [78.404805, 17.448893], [78.40484, 17.449124], [78.404885, 17.449371], [78.404923, 17.449609], [78.404954, 17.44982], [78.405064, 17.450174], [78.405151, 17.450603], [78.405405, 17.450597], [78.405962, 17.451173], [78.40604, 17.451186], [78.406421, 17.451505], [78.406577, 17.451628], [78.406683, 17.451707], [78.406958, 17.451928], [78.40719, 17.45208], [78.407238, 17.452123], [78.408078, 17.452784], [78.40853, 17.453085], [78.408654, 17.453238], [78.408857, 17.453445], [78.408935, 17.453488], [78.409526, 17.454244], [78.409833, 17.454145], [78.409914, 17.45434], [78.41, 17.454549], [78.410087, 17.454768], [78.410168, 17.454984], [78.410264, 17.455205], [78.410352, 17.455421], [78.410436, 17.455647], [78.410473, 17.45575], [78.410619, 17.455751], [78.410605, 17.456141], [78.41104, 17.456156], [78.411468, 17.45621], [78.412743, 17.456355], [78.412732, 17.456522], [78.412736, 17.456552], [78.412803, 17.456867], [78.41283, 17.457068], [78.412841, 17.457141], [78.412865, 17.457278], [78.4129, 17.457482], [78.412925, 17.457624], [78.41296, 17.457864], [78.412966, 17.45792], [78.412959, 17.457974], [78.413116, 17.459376], [78.413337, 17.459427], [78.413334, 17.45955], [78.413404, 17.459588], [78.413483, 17.459567], [78.413492, 17.459423], [78.41357, 17.459409], [78.417546, 17.459651], [78.417285, 17.459975], [78.417333, 17.460218], [78.417721, 17.460874], [78.420962, 17.465056], [78.421174, 17.46563], [78.421386, 17.467065], [78.421527, 17.467498], [78.421633, 17.46799], [78.421771, 17.467992], [78.421742, 17.468161], [78.421942, 17.468082], [78.422076, 17.468477], [78.422091, 17.468472], [78.422314, 17.468403], [78.422466, 17.468356], [78.422604, 17.468313], [78.423178, 17.468689], [78.423644, 17.468547], [78.423774, 17.468651], [78.423831, 17.468862], [78.424611, 17.469088], [78.424803, 17.469121], [78.424872, 17.469101], [78.425233, 17.469577], [78.425591, 17.46958], [78.425677, 17.469583], [78.426427, 17.469609], [78.427333, 17.469904], [78.427162, 17.470151], [78.427287, 17.470259], [78.427634, 17.46976], [78.427929, 17.469333], [78.428214, 17.468852], [78.429984, 17.468369], [78.430321, 17.468225], [78.430364, 17.468133], [78.43091, 17.467996], [78.431574, 17.467849], [78.431811, 17.467796], [78.433988, 17.467423], [78.433963, 17.468048], [78.435314, 17.468574], [78.4356, 17.469369], [78.436776, 17.469002], [78.436694, 17.468865], [78.436123, 17.467891], [78.435495, 17.465913], [78.435171, 17.464706], [78.435479, 17.464649], [78.435845, 17.46474], [78.436306, 17.464742], [78.438742, 17.464752], [78.439052, 17.464655], [78.4392, 17.46461], [78.43969, 17.464364], [78.44024, 17.465011], [78.440366, 17.46491], [78.440469, 17.464822], [78.440562, 17.464742], [78.440926, 17.464431], [78.441201, 17.464199], [78.441299, 17.464124], [78.441459, 17.464001], [78.441952, 17.463556], [78.442298, 17.463827], [78.44321, 17.464556], [78.444236, 17.465428], [78.444423, 17.465575], [78.444091, 17.466201], [78.444943, 17.467236], [78.444735, 17.467332], [78.44494, 17.467634], [78.44541, 17.467376], [78.446024, 17.467446], [78.446572, 17.469602], [78.446683, 17.470051], [78.446693, 17.470095], [78.447527, 17.473604], [78.447626, 17.473585]]}}, {"type": "Feature", "properties": {"vehicle": 2, "time_min": 68.136, "distance_km": 23.752, "co2_kg": 7.1118}, "geometry": {"type": "LineString", "coordinates": [[78.447626, 17.473585], [78.446662, 17.469585], [78.446262, 17.467945], [78.446224, 17.467761], [78.446466, 17.467661], [78.446419, 17.467503], [78.4464, 17.467395], [78.446348, 17.46723], [78.446299, 17.467086], [78.446736, 17.466877], [78.44671, 17.466752], [78.447557, 17.466333], [78.447921, 17.466177], [78.448612, 17.465825], [78.448878, 17.465694], [78.449042, 17.465617], [78.449195, 17.465551], [78.449375, 17.465471], [78.45026, 17.465071], [78.450114, 17.46479], [78.449082, 17.465296], [78.44911, 17.464761], [78.449357, 17.463192], [78.44937, 17.463003], [78.449419, 17.461879], [78.449437, 17.461569], [78.449514, 17.460428], [78.449564, 17.460021], [78.449668, 17.45948], [78.449871, 17.459073], [78.450078, 17.458664], [78.450225, 17.458233], [78.450374, 17.457941], [78.450627, 17.457139], [78.450737, 17.456725], [78.450752, 17.456502], [78.450751, 17.456399], [78.450738, 17.456251], [78.450582, 17.455758], [78.450545, 17.455547], [78.450568, 17.455458], [78.450594, 17.455365], [78.450542, 17.455163], [78.45052, 17.455068], [78.45052, 17.45499], [78.450524, 17.454935], [78.450531, 17.45485], [78.450537, 17.454775], [78.450541, 17.454722], [78.450547, 17.454654], [78.450552, 17.454584], [78.450562, 17.454461], [78.450561, 17.454369], [78.450575, 17.454258], [78.450616, 17.454096], [78.451063, 17.45172], [78.451898, 17.451454], [78.456741, 17.448548], [78.456917, 17.448146], [78.458006, 17.448233], [78.458764, 17.448294], [78.459401, 17.448345], [78.459445, 17.448083], [78.459849, 17.448147], [78.460138, 17.448189], [78.46025, 17.448227], [78.460718, 17.448127], [78.461147, 17.447986], [78.461604, 17.447813], [78.461784, 17.447745], [78.462426, 17.447503], [78.462624, 17.448139], [78.462731, 17.448142], [78.463235, 17.448173], [78.463612, 17.4482], [78.465192, 17.447106], [78.465842, 17.446671], [78.466125, 17.445687], [78.465973, 17.444983], [78.466812, 17.444784], [78.470247, 17.444258], [78.470254, 17.444297], [78.470247, 17.444258], [78.470754, 17.444225], [78.47087, 17.444218], [78.471086, 17.444209], [78.471158, 17.44421], [78.472443, 17.444167], [78.47258, 17.444165], [78.475276, 17.443732], [78.475232, 17.444262], [78.475246, 17.444441], [78.475538, 17.444438], [78.477204, 17.443794], [78.477227, 17.443652], [78.477504, 17.443639], [78.477544, 17.443638], [78.479013, 17.443538], [78.480306, 17.443525], [78.480655, 17.443519], [78.480812, 17.44352], [78.481005, 17.443519], [78.481467, 17.443521], [78.482637, 17.443477], [78.490138, 17.44337], [78.490429, 17.443352], [78.491008, 17.444706], [78.492602, 17.44865], [78.492835, 17.448802], [78.49293, 17.448844], [78.49301, 17.448782], [78.493101, 17.448696], [78.494265, 17.447532], [78.496109, 17.445952], [78.496206, 17.445893], [78.496554, 17.445562], [78.497583, 17.44453], [78.497935, 17.44417], [78.498129, 17.44423], [78.499321, 17.446549], [78.499599, 17.445968], [78.499183, 17.44573], [78.499599, 17.445968], [78.499321, 17.446549], [78.498129, 17.44423], [78.497935, 17.44417], [78.498546, 17.44325], [78.498548, 17.443229], [78.498558, 17.443074], [78.498554, 17.442906], [78.498795, 17.441654], [78.498849, 17.441144], [78.498872, 17.440842], [78.498929, 17.440404], [78.499677, 17.437987], [78.499799, 17.437649], [78.499976, 17.437158], [78.500335, 17.437152], [78.500574, 17.43712], [78.500684, 17.436907], [78.500846, 17.436771], [78.501208, 17.436205], [78.501244, 17.436122], [78.501396, 17.435776], [78.501506, 17.435763], [78.50171, 17.435685], [78.501928, 17.435623], [78.502112, 17.435551], [78.50214, 17.435539], [78.502392, 17.435432], [78.502516, 17.435327], [78.502691, 17.435202], [78.502966, 17.435146], [78.502691, 17.435202], [78.502516, 17.435327], [78.502392, 17.435432], [78.50214, 17.435539], [78.502112, 17.435551], [78.501928, 17.435623], [78.50171, 17.435685], [78.501506, 17.435763], [78.501396, 17.435776], [78.501306, 17.435792], [78.501012, 17.435841], [78.500788, 17.435879], [78.500457, 17.435929], [78.500554, 17.435714], [78.500429, 17.435665], [78.500333, 17.435594], [78.499808, 17.435873], [78.499594, 17.435354], [78.499074, 17.434729], [78.498922, 17.434699], [78.498165, 17.433847], [78.49727, 17.433392], [78.496831, 17.433497], [78.496621, 17.432661], [78.496254, 17.432715], [78.495777, 17.432458], [78.495645, 17.432283], [78.495512, 17.432248], [78.49537, 17.432209], [78.495201, 17.432164], [78.49506, 17.432118], [78.494921, 17.431986], [78.494762, 17.431957], [78.493486, 17.43176], [78.493366, 17.431762], [78.493222, 17.431764], [78.492878, 17.431822], [78.492657, 17.431074], [78.492577, 17.430946], [78.492598, 17.430687], [78.492562, 17.430156], [78.49254, 17.429851], [78.492232, 17.42903], [78.491356, 17.428986], [78.49142, 17.428573], [78.490849, 17.42812], [78.49142, 17.428573], [78.491356, 17.428986], [78.490713, 17.428962], [78.490278, 17.429106], [78.490066, 17.428988], [78.489193, 17.428695], [78.487889, 17.428441], [78.48778, 17.428462], [78.487825, 17.428546], [78.488062, 17.429444], [78.488224, 17.430744], [78.486901, 17.430653], [78.486635, 17.431076], [78.48643, 17.431326], [78.486222, 17.431588], [78.485693, 17.432253], [78.484983, 17.433118], [78.48502, 17.433174], [78.485078, 17.433248], [78.485257, 17.433639], [78.485289, 17.433716], [78.483718, 17.435113], [78.483322, 17.43553], [78.483061, 17.435824], [78.482926, 17.435983], [78.481258, 17.437865], [78.481332, 17.437929], [78.481471, 17.438165], [78.481504, 17.438299], [78.481038, 17.438818], [78.480533, 17.439396], [78.4804, 17.439549], [78.479765, 17.440513], [78.479375, 17.440485], [78.479284, 17.440452], [78.479251, 17.440506], [78.477445, 17.443217], [78.477372, 17.443304], [78.477019, 17.443397], [78.475272, 17.443568], [78.472931, 17.444011], [78.472883, 17.443354], [78.472426, 17.443353], [78.472439, 17.442963], [78.472471, 17.442736], [78.472254, 17.442725], [78.472128, 17.442688], [78.471609, 17.442528], [78.471291, 17.442563], [78.470904, 17.4426], [78.470542, 17.44265], [78.470209, 17.442694], [78.470124, 17.442148], [78.470047, 17.44163], [78.470015, 17.441364], [78.469818, 17.441384], [78.469679, 17.440527], [78.469635, 17.440357], [78.46939, 17.440351], [78.468988, 17.44035], [78.468522, 17.440352], [78.468112, 17.440332], [78.467864, 17.440318], [78.467593, 17.4403], [78.467259, 17.440314], [78.466929, 17.440329], [78.466873, 17.4398], [78.464562, 17.440531], [78.464211, 17.440156], [78.463868, 17.4405], [78.463637, 17.440696], [78.46341, 17.440872], [78.463302, 17.440964], [78.46301, 17.440703], [78.462908, 17.440827], [78.46278, 17.440997], [78.462654, 17.441191], [78.462384, 17.441585], [78.462091, 17.442025], [78.461986, 17.442197], [78.46177, 17.442514], [78.460861, 17.443855], [78.460756, 17.444011], [78.462122, 17.444599], [78.461577, 17.445498], [78.46063, 17.446244], [78.460044, 17.446647], [78.459578, 17.446978], [78.459319, 17.447164], [78.458816, 17.447547], [78.458092, 17.447526], [78.458057, 17.447803], [78.458006, 17.448233], [78.457966, 17.44865], [78.456741, 17.448548], [78.451898, 17.451454], [78.451063, 17.45172], [78.450616, 17.454096], [78.450575, 17.454258], [78.450561, 17.454369], [78.450562, 17.454461], [78.450552, 17.454584], [78.450547, 17.454654], [78.450541, 17.454722], [78.450537, 17.454775], [78.450531, 17.45485], [78.450524, 17.454935], [78.45052, 17.45499], [78.45052, 17.455068], [78.450542, 17.455163], [78.450594, 17.455365], [78.450568, 17.455458], [78.450545, 17.455547], [78.450582, 17.455758], [78.450738, 17.456251], [78.450751, 17.456399], [78.450752, 17.456502], [78.450174, 17.458213], [78.449636, 17.45947], [78.449475, 17.460489], [78.449425, 17.46086], [78.449414, 17.461099], [78.449384, 17.46153], [78.449362, 17.46187], [78.44833, 17.462037], [78.447867, 17.462063], [78.44715, 17.462073], [78.444319, 17.462233], [78.443855, 17.462252], [78.443312, 17.462267], [78.443359, 17.463217], [78.444402, 17.463772], [78.444236, 17.465428], [78.444423, 17.465575], [78.444091, 17.466201], [78.444943, 17.467236], [78.444735, 17.467332], [78.44494, 17.467634], [78.44541, 17.467376], [78.446024, 17.467446], [78.446572, 17.469602], [78.446683, 17.470051], [78.446693, 17.470095], [78.447527, 17.473604], [78.447626, 17.473585]]}}, {"type": "Feature", "properties": {"vehicle": 3, "time_min": 120.532, "distance_km": 40.671, "co2_kg": 12.4194}, "geometry": {"type": "LineString", "coordinates": [[78.447626, 17.473585], [78.446662, 17.469585], [78.446262, 17.467945], [78.446224, 17.467761], [78.446466, 17.467661], [78.446419, 17.467503], [78.4464, 17.467395], [78.446348, 17.46723], [78.446299, 17.467086], [78.446736, 17.466877], [78.44671, 17.466752], [78.447557, 17.466333], [78.447921, 17.466177], [78.448612, 17.465825], [78.448878, 17.465694], [78.449042, 17.465617], [78.449195, 17.465551], [78.449375, 17.465471], [78.45026, 17.465071], [78.450114, 17.46479], [78.449082, 17.465296], [78.44911, 17.464761], [78.449357, 17.463192], [78.44937, 17.463003], [78.449419, 17.461879], [78.449437, 17.461569], [78.449514, 17.460428], [78.449564, 17.460021], [78.449668, 17.45948], [78.449871, 17.459073], [78.450078, 17.458664], [78.450225, 17.458233], [78.450329, 17.451645], [78.450273, 17.450221], [78.449976, 17.449278], [78.449872, 17.448947], [78.449688, 17.448411], [78.449585, 17.44808], [78.449294, 17.44717], [78.449727, 17.446971], [78.44995, 17.446866], [78.450429, 17.446645], [78.450502, 17.446605], [78.450667, 17.44652], [78.450888, 17.446407], [78.451052, 17.445911], [78.450945, 17.445616], [78.450773, 17.445074], [78.450413, 17.443953], [78.450598, 17.443891], [78.45102, 17.44375], [78.452046, 17.443443], [78.452511, 17.442857], [78.452511, 17.442716], [78.452508, 17.442481], [78.452507, 17.442444], [78.452509, 17.442246], [78.452506, 17.442017], [78.452458, 17.441131], [78.452477, 17.440975], [78.452501, 17.440772], [78.452534, 17.440538], [78.452613, 17.439998], [78.452715, 17.439231], [78.453005, 17.439242], [78.452871, 17.438601], [78.452836, 17.438425], [78.452794, 17.438095], [78.452787, 17.43804], [78.45274, 17.437849], [78.452693, 17.437487], [78.452615, 17.436993], [78.452576, 17.437], [78.452472, 17.436052], [78.452518, 17.436086], [78.45474, 17.435542], [78.455198, 17.435368], [78.455422, 17.435318], [78.455655, 17.435262], [78.455618, 17.435192], [78.455585, 17.434391], [78.455995, 17.433223], [78.456259, 17.431616], [78.456131, 17.430447], [78.455999, 17.430066], [78.455955, 17.429898], [78.455727, 17.429287], [78.456013, 17.428529], [78.456356, 17.428355], [78.457548, 17.426996], [78.458039, 17.427039], [78.458708, 17.4272], [78.459051, 17.427094], [78.459218, 17.427009], [78.459506, 17.426792], [78.459597, 17.426511], [78.460482, 17.425369], [78.460411, 17.424461], [78.461168, 17.424411], [78.462605, 17.423945], [78.462815, 17.422858], [78.462742, 17.42224], [78.462134, 17.41974], [78.462357, 17.419705], [78.462333, 17.419545], [78.462273, 17.419318], [78.462214, 17.419137], [78.462204, 17.419002], [78.462518, 17.418911], [78.462323, 17.418224], [78.462145, 17.417496], [78.461957, 17.416824], [78.461891, 17.416069], [78.461785, 17.414818], [78.46179, 17.41454], [78.461796, 17.414046], [78.4618, 17.413886], [78.461736, 17.413555], [78.461973, 17.412759], [78.462029, 17.412721], [78.462022, 17.412661], [78.461927, 17.41257], [78.461656, 17.412351], [78.461661, 17.412168], [78.461689, 17.41098], [78.46197, 17.409728], [78.461942, 17.409436], [78.461916, 17.408874], [78.462567, 17.40656], [78.462772, 17.406391], [78.463548, 17.405597], [78.463688, 17.40544], [78.463894, 17.405232], [78.464047, 17.405078], [78.464172, 17.404945], [78.46428, 17.404822], [78.464458, 17.404618], [78.464465, 17.404422], [78.46504, 17.403841], [78.464986, 17.403775], [78.464758, 17.403957], [78.463053, 17.403068], [78.463136, 17.402931], [78.463252, 17.402779], [78.46338, 17.40261], [78.463084, 17.401685], [78.46308, 17.401619], [78.463061, 17.401343], [78.463014, 17.400414], [78.462802, 17.400373], [78.462806, 17.399573], [78.46279, 17.399418], [78.462724, 17.398842], [78.462733, 17.398424], [78.462724, 17.398253], [78.462725, 17.397645], [78.462728, 17.397317], [78.462721, 17.396976], [78.463264, 17.396953], [78.463373, 17.396948], [78.463492, 17.396658], [78.46375, 17.39641], [78.463732, 17.396053], [78.46366, 17.396056], [78.463622, 17.395704], [78.463555, 17.395029], [78.463513, 17.394594], [78.463725, 17.393967], [78.464294, 17.393526], [78.46495, 17.392813], [78.46482, 17.392457], [78.464864, 17.392391], [78.465599, 17.391494], [78.465684, 17.391417], [78.465639, 17.39136], [78.465479, 17.390779], [78.465363, 17.390377], [78.466067, 17.390332], [78.466335, 17.389708], [78.466315, 17.389608], [78.466294, 17.389504], [78.466179, 17.388928], [78.466248, 17.38867], [78.467183, 17.388457], [78.467182, 17.388423], [78.467919, 17.388239], [78.468842, 17.388007], [78.469482, 17.387882], [78.469716, 17.388152], [78.469825, 17.388804], [78.469919, 17.389237], [78.469976, 17.389224], [78.47023, 17.389936], [78.470204, 17.389965], [78.470071, 17.390093], [78.469806, 17.390112], [78.468039, 17.39066], [78.467756, 17.390762], [78.467673, 17.390782], [78.466623, 17.390916], [78.466067, 17.390332], [78.465363, 17.390377], [78.464981, 17.390396], [78.46494, 17.390398], [78.464539, 17.390407], [78.464332, 17.390411], [78.463695, 17.390492], [78.463175, 17.390727], [78.462816, 17.390872], [78.462789, 17.390611], [78.462534, 17.390622], [78.462532, 17.390556], [78.461698, 17.390638], [78.461413, 17.390632], [78.460766, 17.390601], [78.460143, 17.390714], [78.459544, 17.390659], [78.459192, 17.390533], [78.458815, 17.390385], [78.458377, 17.390193], [78.457811, 17.390099], [78.457402, 17.390133], [78.457157, 17.390138], [78.456019, 17.390259], [78.455848, 17.389972], [78.455741, 17.38975], [78.455487, 17.389219], [78.455362, 17.389133], [78.455376, 17.38907], [78.455287, 17.389032], [78.455252, 17.389065], [78.455129, 17.38909], [78.455015, 17.389118], [78.453447, 17.389005], [78.45271, 17.388976], [78.452365, 17.388143], [78.452059, 17.387613], [78.451851, 17.387468], [78.451142, 17.387486], [78.450862, 17.387485], [78.44972, 17.38751], [78.44968, 17.387312], [78.448782, 17.38734], [78.447858, 17.387282], [78.4463, 17.387232], [78.445987, 17.387196], [78.445531, 17.387189], [78.444726, 17.387361], [78.444708, 17.38736], [78.444486, 17.38736], [78.444222, 17.387328], [78.44389, 17.38729], [78.443538, 17.387254], [78.443391, 17.387227], [78.442984, 17.387159], [78.442702, 17.387121], [78.441888, 17.386992], [78.441457, 17.386913], [78.441064, 17.38684], [78.440667, 17.386778], [78.439912, 17.386682], [78.438581, 17.386323], [78.438544, 17.386904], [78.438526, 17.387198], [78.438609, 17.38849], [78.43872, 17.388884], [78.438109, 17.389014], [78.437309, 17.389317], [78.437448, 17.389726], [78.437699, 17.390345], [78.437915, 17.390953], [78.437677, 17.391045], [78.437325, 17.391178], [78.436849, 17.391312], [78.436867, 17.391371], [78.436196, 17.391579], [78.435149, 17.391618], [78.435224, 17.392031], [78.435103, 17.392034], [78.435226, 17.392507], [78.434422, 17.39279], [78.434591, 17.393244], [78.434687, 17.393524], [78.434807, 17.393734], [78.433496, 17.39431], [78.433121, 17.394358], [78.433028, 17.39447], [78.432703, 17.394516], [78.43228, 17.394561], [78.432462, 17.395588], [78.43225, 17.395661], [78.431362, 17.395756], [78.4308, 17.395776], [78.43054, 17.395796], [78.430485, 17.395333], [78.430423, 17.394802], [78.42993, 17.394872], [78.429415, 17.394919], [78.428911, 17.394778], [78.428453, 17.394745], [78.42792, 17.394712], [78.427881, 17.39471], [78.427202, 17.394679], [78.426796, 17.39342], [78.426726, 17.393361], [78.426731, 17.393461], [78.426792, 17.39355], [78.427126, 17.394663], [78.426522, 17.394749], [78.426064, 17.394814], [78.425788, 17.394853], [78.425183, 17.394939], [78.424605, 17.39502], [78.424079, 17.395095], [78.423331, 17.395201], [78.422848, 17.39527], [78.422193, 17.395399], [78.422284, 17.395816], [78.422369, 17.396202], [78.422484, 17.396725], [78.421242, 17.396953], [78.419422, 17.397747], [78.41903, 17.397905], [78.418959, 17.397505], [78.418731, 17.397317], [78.418616, 17.39686], [78.418397, 17.396177], [78.418443, 17.396139], [78.418255, 17.395185], [78.417852, 17.395274], [78.417346, 17.395391], [78.417346, 17.395093], [78.416698, 17.395092], [78.416526, 17.395126], [78.41651, 17.394641], [78.416507, 17.393941], [78.416675, 17.393708], [78.416489, 17.393609], [78.415152, 17.394076], [78.415, 17.393911], [78.414723, 17.393779], [78.414675, 17.393619], [78.414572, 17.393634], [78.414503, 17.393922], [78.414572, 17.393634], [78.414675, 17.393619], [78.414723, 17.393779], [78.415, 17.393911], [78.415152, 17.394076], [78.416489, 17.393609], [78.416675, 17.393708], [78.416507, 17.393941], [78.41651, 17.394641], [78.416526, 17.395126], [78.416176, 17.395187], [78.41616, 17.395308], [78.41618, 17.395546], [78.416169, 17.395993], [78.416084, 17.396679], [78.416136, 17.396953], [78.416346, 17.396928], [78.416398, 17.397143], [78.416443, 17.397412], [78.416497, 17.397676], [78.416515, 17.397768], [78.416577, 17.398077], [78.416886, 17.398326], [78.416859, 17.398362], [78.416816, 17.398547], [78.416857, 17.398706], [78.41776, 17.398635], [78.417804, 17.399035], [78.418158, 17.399017], [78.418435, 17.399008], [78.418655, 17.399002], [78.419167, 17.398963], [78.419278, 17.398961], [78.419442, 17.399212], [78.419572, 17.399454], [78.419652, 17.399559], [78.419713, 17.399672], [78.419355, 17.399877], [78.419713, 17.399672], [78.419652, 17.399559], [78.420316, 17.398599], [78.420512, 17.39872], [78.42086, 17.397966], [78.421173, 17.398097], [78.42086, 17.397966], [78.420512, 17.39872], [78.420316, 17.398599], [78.419652, 17.399559], [78.419572, 17.399454], [78.419442, 17.399212], [78.418826, 17.399572], [78.418886, 17.399666], [78.418893, 17.399998], [78.418567, 17.400034], [78.41857, 17.400386], [78.418136, 17.40041], [78.418149, 17.40076], [78.417926, 17.400772], [78.417204, 17.400917], [78.41714, 17.400959], [78.417301, 17.40257], [78.417217, 17.402789], [78.417144, 17.403082], [78.417114, 17.403094], [78.417121, 17.40317], [78.417176, 17.403168], [78.417933, 17.403442], [78.418402, 17.40361], [78.418409, 17.403622], [78.418425, 17.403633], [78.418599, 17.403726], [78.419066, 17.403777], [78.419213, 17.404236], [78.419287, 17.404406], [78.419338, 17.404749], [78.419382, 17.40513], [78.419409, 17.405383], [78.419416, 17.405429], [78.419469, 17.405688], [78.419523, 17.405972], [78.419564, 17.406239], [78.419607, 17.406559], [78.419664, 17.406831], [78.419699, 17.407003], [78.419734, 17.407156], [78.419761, 17.407301], [78.419807, 17.407532], [78.419756, 17.407748], [78.419732, 17.407869], [78.419722, 17.407961], [78.419708, 17.40817], [78.419677, 17.408378], [78.419668, 17.408556], [78.419611, 17.40918], [78.420582, 17.410663], [78.42146, 17.410631], [78.421409, 17.410361], [78.421812, 17.410185], [78.423733, 17.409768], [78.423808, 17.409528], [78.423885, 17.409286], [78.424358, 17.409124], [78.42448, 17.409078], [78.425276, 17.408968], [78.425943, 17.40897], [78.426257, 17.408957], [78.426598, 17.408843], [78.428215, 17.40877], [78.428647, 17.408658], [78.42889, 17.408586], [78.429218, 17.408422], [78.430235, 17.407717], [78.430342, 17.407654], [78.430528, 17.407555], [78.430584, 17.407526], [78.431092, 17.407289], [78.431144, 17.407271], [78.43259, 17.407046], [78.433101, 17.406486], [78.433532, 17.406228], [78.43374, 17.406048], [78.43416, 17.405853], [78.434324, 17.404856], [78.434183, 17.404748], [78.434118, 17.404932], [78.433346, 17.404785], [78.434118, 17.404932], [78.434183, 17.404748], [78.434324, 17.404856], [78.43416, 17.405853], [78.43374, 17.406048], [78.433532, 17.406228], [78.43386, 17.40661], [78.434066, 17.40681], [78.434125, 17.406964], [78.4344, 17.408292], [78.434729, 17.408255], [78.435053, 17.408229], [78.435196, 17.408556], [78.435369, 17.409098], [78.435503, 17.409825], [78.435722, 17.410627], [78.437406, 17.410547], [78.435424, 17.411636], [78.435438, 17.411726], [78.435552, 17.412497], [78.43564, 17.413094], [78.435924, 17.413062], [78.435701, 17.413649], [78.435764, 17.414049], [78.435788, 17.414154], [78.435865, 17.414478], [78.435909, 17.414681], [78.43597, 17.41491], [78.43599, 17.415003], [78.436657, 17.415467], [78.436663, 17.415508], [78.436678, 17.416032], [78.436678, 17.416123], [78.437801, 17.416278], [78.43693, 17.417299], [78.435867, 17.417654], [78.435872, 17.417776], [78.436114, 17.417962], [78.436159, 17.418201], [78.436178, 17.41869], [78.435092, 17.418692], [78.434858, 17.418702], [78.434878, 17.419115], [78.43566, 17.419344], [78.435656, 17.419471], [78.435748, 17.41997], [78.435465, 17.420702], [78.43554, 17.421152], [78.43616, 17.420989], [78.437014, 17.420856], [78.437762, 17.420998], [78.4378, 17.421152], [78.437699, 17.421175], [78.43726, 17.42139], [78.43592, 17.422075], [78.435562, 17.423161], [78.434787, 17.423279], [78.433615, 17.423629], [78.432949, 17.423822], [78.432249, 17.42396], [78.431518, 17.424018], [78.432249, 17.42396], [78.432949, 17.423822], [78.433615, 17.423629], [78.434787, 17.423279], [78.435562, 17.423161], [78.435939, 17.423945], [78.436811, 17.424575], [78.436824, 17.424851], [78.437302, 17.425332], [78.437736, 17.425347], [78.438159, 17.425372], [78.437361, 17.425979], [78.437258, 17.426057], [78.435555, 17.425563], [78.435367, 17.425514], [78.434985, 17.425424], [78.434536, 17.425295], [78.43349, 17.424988], [78.433458, 17.425084], [78.433033, 17.426323], [78.432813, 17.427228], [78.432838, 17.427532], [78.432911, 17.427536], [78.433841, 17.427468], [78.434166, 17.427453], [78.4352, 17.427796], [78.435331, 17.427997], [78.435425, 17.428279], [78.43598, 17.428656], [78.436554, 17.429015], [78.436567, 17.430181], [78.435698, 17.430179], [78.435718, 17.430281], [78.435846, 17.431021], [78.435989, 17.431582], [78.436423, 17.431526], [78.436732, 17.432463], [78.436862, 17.432857], [78.437019, 17.43332], [78.436766, 17.433744], [78.436696, 17.43382], [78.436638, 17.433876], [78.436549, 17.433997], [78.436414, 17.434062], [78.43615, 17.434242], [78.436112, 17.43428], [78.436151, 17.434338], [78.436403, 17.435196], [78.436474, 17.435548], [78.436493, 17.435858], [78.436514, 17.436171], [78.436518, 17.43626], [78.436598, 17.436748], [78.436629, 17.438007], [78.437007, 17.439098], [78.436829, 17.439114], [78.436839, 17.439192], [78.436901, 17.439671], [78.436983, 17.440129], [78.437074, 17.440659], [78.437248, 17.440622], [78.437303, 17.440946], [78.437362, 17.441224], [78.437433, 17.441563], [78.437506, 17.44155], [78.438576, 17.441364], [78.438869, 17.441312], [78.439172, 17.441259], [78.439214, 17.441482], [78.439283, 17.441853], [78.439388, 17.442352], [78.439399, 17.442394], [78.440531, 17.442133], [78.441119, 17.44246], [78.440602, 17.443303], [78.44076, 17.443382], [78.440973, 17.443479], [78.441187, 17.443551], [78.441387, 17.443594], [78.441346, 17.444063], [78.441337, 17.444121], [78.441544, 17.444193], [78.441736, 17.444277], [78.44195, 17.444369], [78.442158, 17.444445], [78.44237, 17.44442], [78.442555, 17.444399], [78.442897, 17.444355], [78.443287, 17.444273], [78.443333, 17.444628], [78.443952, 17.444552], [78.444896, 17.444405], [78.445364, 17.444366], [78.445405, 17.44467], [78.445408, 17.444795], [78.445441, 17.444985], [78.44549, 17.445321], [78.445521, 17.445532], [78.445572, 17.446041], [78.445654, 17.446358], [78.445692, 17.446576], [78.44577, 17.446946], [78.445862, 17.447386], [78.44593, 17.447681], [78.446052, 17.447978], [78.446184, 17.448298], [78.445971, 17.448348], [78.446064, 17.448652], [78.446251, 17.448962], [78.446332, 17.449062], [78.446518, 17.449439], [78.44665, 17.449862], [78.446772, 17.450522], [78.446856, 17.45093], [78.446881, 17.451072], [78.446946, 17.451334], [78.44702, 17.451703], [78.447085, 17.45207], [78.447135, 17.452356], [78.447189, 17.452666], [78.447238, 17.452945], [78.447292, 17.453252], [78.447419, 17.454001], [78.447447, 17.454162], [78.447466, 17.454268], [78.447678, 17.454239], [78.447889, 17.455596], [78.448032, 17.455565], [78.449566, 17.455297], [78.450116, 17.45525], [78.450174, 17.458213], [78.449636, 17.45947], [78.449475, 17.460489], [78.449425, 17.46086], [78.449414, 17.461099], [78.449384, 17.46153], [78.449362, 17.46187], [78.44833, 17.462037], [78.447867, 17.462063], [78.44715, 17.462073], [78.444319, 17.462233], [78.443855, 17.462252], [78.443312, 17.462267], [78.443359, 17.463217], [78.444402, 17.463772], [78.444236, 17.465428], [78.444423, 17.465575], [78.444091, 17.466201], [78.444943, 17.467236], [78.444735, 17.467332], [78.44494, 17.467634], [78.44541, 17.467376], [78.446024, 17.467446], [78.446572, 17.469602], [78.446683, 17.470051], [78.446693, 17.470095], [78.447527, 17.473604], [78.447626, 17.473585]]}}, {"type": "Feature", "properties": {"vehicle": 4, "time_min": 72.965, "distance_km": 24.13, "co2_kg": 7.4594}, "geometry": {"type": "LineString", "coordinates": [[78.447626, 17.473585], [78.446662, 17.469585], [78.446262, 17.467945], [78.446224, 17.467761], [78.446466, 17.467661], [78.446419, 17.467503], [78.4464, 17.467395], [78.446348, 17.46723], [78.446299, 17.467086], [78.446736, 17.466877], [78.44671, 17.466752], [78.447557, 17.466333], [78.447921, 17.466177], [78.44774, 17.46591], [78.446629, 17.466424], [78.446652, 17.465752], [78.445331, 17.465638], [78.44528, 17.466224], [78.444423, 17.465575], [78.444236, 17.465428], [78.44321, 17.464556], [78.442298, 17.463827], [78.441952, 17.463556], [78.441459, 17.464001], [78.441299, 17.464124], [78.441201, 17.464199], [78.440926, 17.464431], [78.440562, 17.464742], [78.440469, 17.464822], [78.440366, 17.46491], [78.44024, 17.465011], [78.43969, 17.464364], [78.4392, 17.46461], [78.439052, 17.464655], [78.438742, 17.464752], [78.436306, 17.464742], [78.435845, 17.46474], [78.435479, 17.464649], [78.435171, 17.464706], [78.434986, 17.464481], [78.434742, 17.464502], [78.434327, 17.464531], [78.434058, 17.464535], [78.433837, 17.464425], [78.433025, 17.463971], [78.432574, 17.463781], [78.432533, 17.463783], [78.432374, 17.463782], [78.432178, 17.462816], [78.431122, 17.462853], [78.430698, 17.46296], [78.430021, 17.464258], [78.429972, 17.46438], [78.429858, 17.464719], [78.429474, 17.464546], [78.429276, 17.464481], [78.429199, 17.464528], [78.428942, 17.464638], [78.428831, 17.4647], [78.428326, 17.464922], [78.4278, 17.465156], [78.427565, 17.465251], [78.427424, 17.465308], [78.427244, 17.465384], [78.427102, 17.465446], [78.426903, 17.465547], [78.426253, 17.465867], [78.425722, 17.466081], [78.425408, 17.466459], [78.42461, 17.466358], [78.42353, 17.466161], [78.423443, 17.466136], [78.422961, 17.466013], [78.421635, 17.465769], [78.42122, 17.46567], [78.421174, 17.46563], [78.420962, 17.465056], [78.417721, 17.460874], [78.417333, 17.460218], [78.417285, 17.459975], [78.417546, 17.459651], [78.41357, 17.459409], [78.413492, 17.459423], [78.413337, 17.459427], [78.413116, 17.459376], [78.412959, 17.457974], [78.412966, 17.45792], [78.41296, 17.457864], [78.412925, 17.457624], [78.4129, 17.457482], [78.412865, 17.457278], [78.412841, 17.457141], [78.41283, 17.457068], [78.412803, 17.456867], [78.412736, 17.456552], [78.412732, 17.456522], [78.412743, 17.456355], [78.411468, 17.45621], [78.41104, 17.456156], [78.410605, 17.456141], [78.410619, 17.455751], [78.410473, 17.45575], [78.410436, 17.455647], [78.410352, 17.455421], [78.410264, 17.455205], [78.410168, 17.454984], [78.410087, 17.454768], [78.41, 17.454549], [78.409914, 17.45434], [78.409833, 17.454145], [78.409526, 17.454244], [78.408935, 17.453488], [78.408857, 17.453445], [78.408654, 17.453238], [78.40853, 17.453085], [78.408078, 17.452784], [78.407238, 17.452123], [78.40719, 17.45208], [78.406958, 17.451928], [78.406683, 17.451707], [78.406577, 17.451628], [78.406421, 17.451505], [78.40604, 17.451186], [78.405962, 17.451173], [78.405405, 17.450597], [78.405151, 17.450603], [78.405064, 17.450174], [78.404954, 17.44982], [78.404923, 17.449609], [78.404885, 17.449371], [78.40484, 17.449124], [78.404805, 17.448893], [78.40477, 17.448677], [78.404732, 17.448452], [78.404703, 17.448258], [78.404664, 17.44802], [78.404618, 17.447768], [78.401708, 17.447289], [78.401512, 17.446799], [78.401251, 17.44687], [78.400666, 17.446243], [78.400191, 17.446379], [78.399918, 17.446454], [78.399448, 17.446567], [78.399111, 17.445543], [78.398595, 17.44569], [78.398101, 17.445828], [78.397686, 17.444463], [78.397278, 17.443093], [78.397147, 17.442752], [78.396637, 17.441967], [78.397154, 17.441638], [78.397344, 17.441397], [78.397617, 17.441026], [78.397719, 17.440887], [78.398482, 17.439888], [78.398801, 17.439461], [78.399273, 17.438914], [78.399367, 17.438809], [78.400284, 17.439397], [78.400771, 17.438838], [78.401352, 17.438129], [78.401697, 17.437669], [78.400847, 17.436736], [78.401851, 17.435535], [78.401965, 17.435472], [78.404273, 17.434264], [78.40483, 17.433979], [78.405175, 17.435203], [78.406322, 17.434635], [78.406489, 17.434553], [78.407676, 17.435289], [78.407934, 17.434826], [78.407676, 17.435289], [78.406489, 17.434553], [78.406322, 17.434635], [78.405175, 17.435203], [78.405577, 17.43624], [78.405998, 17.437569], [78.405808, 17.438676], [78.40735, 17.438674], [78.407799, 17.439714], [78.408458, 17.440538], [78.407458, 17.441362], [78.408458, 17.440538], [78.408935, 17.439496], [78.40923, 17.439334], [78.410572, 17.438454], [78.411452, 17.437963], [78.412616, 17.437129], [78.41252, 17.436893], [78.412348, 17.436822], [78.410432, 17.435272], [78.412054, 17.435459], [78.414278, 17.434741], [78.415417, 17.434476], [78.416467, 17.434016], [78.417165, 17.433154], [78.417657, 17.433539], [78.418038, 17.433378], [78.418637, 17.433126], [78.420696, 17.432631], [78.420714, 17.432865], [78.421619, 17.432833], [78.422011, 17.432627], [78.422231, 17.432453], [78.422785, 17.433296], [78.42289, 17.433244], [78.423084, 17.433151], [78.423203, 17.433092], [78.42332, 17.433036], [78.423462, 17.432963], [78.42356, 17.432924], [78.423739, 17.432855], [78.423802, 17.432834], [78.424004, 17.432765], [78.424067, 17.432742], [78.424321, 17.432651], [78.424384, 17.43263], [78.424505, 17.432586], [78.424779, 17.432486], [78.425028, 17.432388], [78.425124, 17.432348], [78.42525, 17.432299], [78.425604, 17.433157], [78.425721, 17.433417], [78.425927, 17.433338], [78.426074, 17.433285], [78.426223, 17.433236], [78.426305, 17.433207], [78.426531, 17.433133], [78.42692, 17.43406], [78.426986, 17.434023], [78.427321, 17.433905], [78.427624, 17.43474], [78.427809, 17.434718], [78.42812, 17.434696], [78.42832, 17.434725], [78.428546, 17.434789], [78.429038, 17.434764], [78.429205, 17.434739], [78.429299, 17.434736], [78.429486, 17.434734], [78.429684, 17.434732], [78.429919, 17.43473], [78.430109, 17.434719], [78.430327, 17.434721], [78.430464, 17.434781], [78.430529, 17.434812], [78.430692, 17.434958], [78.430891, 17.434974], [78.431398, 17.434853], [78.431776, 17.434776], [78.432109, 17.435589], [78.432176, 17.435564], [78.43257, 17.435414], [78.433052, 17.435244], [78.433352, 17.435161], [78.43353, 17.435091], [78.434074, 17.434877], [78.434289, 17.435056], [78.434673, 17.435459], [78.434261, 17.435817], [78.434292, 17.435862], [78.434416, 17.43577], [78.434702, 17.4355], [78.435134, 17.436078], [78.435322, 17.436362], [78.435351, 17.436436], [78.435744, 17.437264], [78.43596, 17.437732], [78.435499, 17.437917], [78.434867, 17.438145], [78.434882, 17.438507], [78.434893, 17.438769], [78.434904, 17.438939], [78.434943, 17.439328], [78.434962, 17.439408], [78.43541, 17.439367], [78.435455, 17.439806], [78.436901, 17.439671], [78.437527, 17.439595], [78.437607, 17.440022], [78.438264, 17.439859], [78.438347, 17.439833], [78.438804, 17.439678], [78.438905, 17.439943], [78.439689, 17.43976], [78.439896, 17.439993], [78.440207, 17.43995], [78.440265, 17.439947], [78.440814, 17.439906], [78.441295, 17.43988], [78.441462, 17.43988], [78.441586, 17.439873], [78.442493, 17.439906], [78.441174, 17.442364], [78.441119, 17.44246], [78.440602, 17.443303], [78.44076, 17.443382], [78.440973, 17.443479], [78.441187, 17.443551], [78.441387, 17.443594], [78.441346, 17.444063], [78.441337, 17.444121], [78.441544, 17.444193], [78.441736, 17.444277], [78.44195, 17.444369], [78.442158, 17.444445], [78.44237, 17.44442], [78.442555, 17.444399], [78.442897, 17.444355], [78.443287, 17.444273], [78.443333, 17.444628], [78.443952, 17.444552], [78.444896, 17.444405], [78.445364, 17.444366], [78.445405, 17.44467], [78.445408, 17.444795], [78.445441, 17.444985], [78.44549, 17.445321], [78.445521, 17.445532], [78.445572, 17.446041], [78.445654, 17.446358], [78.445692, 17.446576], [78.44577, 17.446946], [78.445862, 17.447386], [78.44593, 17.447681], [78.446052, 17.447978], [78.446184, 17.448298], [78.445971, 17.448348], [78.446064, 17.448652], [78.446251, 17.448962], [78.446332, 17.449062], [78.446518, 17.449439], [78.44665, 17.449862], [78.446772, 17.450522], [78.446856, 17.45093], [78.446881, 17.451072], [78.446946, 17.451334], [78.44702, 17.451703], [78.447085, 17.45207], [78.447135, 17.452356], [78.447189, 17.452666], [78.447238, 17.452945], [78.447292, 17.453252], [78.447419, 17.454001], [78.447447, 17.454162], [78.447466, 17.454268], [78.447678, 17.454239], [78.447889, 17.455596], [78.448032, 17.455565], [78.449566, 17.455297], [78.450116, 17.45525], [78.450174, 17.458213], [78.449636, 17.45947], [78.449475, 17.460489], [78.449425, 17.46086], [78.449414, 17.461099], [78.449384, 17.46153], [78.449362, 17.46187], [78.44833, 17.462037], [78.447867, 17.462063], [78.44715, 17.462073], [78.444319, 17.462233], [78.443855, 17.462252], [78.443312, 17.462267], [78.443359, 17.463217], [78.444402, 17.463772], [78.444236, 17.465428], [78.444423, 17.465575], [78.444091, 17.466201], [78.444943, 17.467236], [78.444735, 17.467332], [78.44494, 17.467634], [78.44541, 17.467376], [78.446024, 17.467446], [78.446572, 17.469602], [78.446683, 17.470051], [78.446693, 17.470095], [78.447527, 17.473604], [78.447626, 17.473585]]}}, {"type": "Feature", "properties": {"vehicle": 5, "time_min": 113.197, "distance_km": 38.334, "co2_kg": 11.6832}, "geometry": {"type": "LineString", "coordinates": [[78.447626, 17.473585], [78.446662, 17.469585], [78.446262, 17.467945], [78.446224, 17.467761], [78.446466, 17.467661], [78.446419, 17.467503], [78.4464, 17.467395], [78.446348, 17.46723], [78.446299, 17.467086], [78.446736, 17.466877], [78.44671, 17.466752], [78.447557, 17.466333], [78.447921, 17.466177], [78.44774, 17.46591], [78.446629, 17.466424], [78.446652, 17.465752], [78.445331, 17.465638], [78.44528, 17.466224], [78.444423, 17.465575], [78.444236, 17.465428], [78.44321, 17.464556], [78.442298, 17.463827], [78.441952, 17.463556], [78.441459, 17.464001], [78.441299, 17.464124], [78.441201, 17.464199], [78.440926, 17.464431], [78.440562, 17.464742], [78.440469, 17.464822], [78.440366, 17.46491], [78.44024, 17.465011], [78.43969, 17.464364], [78.4392, 17.46461], [78.439052, 17.464655], [78.438742, 17.464752], [78.436306, 17.464742], [78.435845, 17.46474], [78.435479, 17.464649], [78.435171, 17.464706], [78.434986, 17.464481], [78.434742, 17.464502], [78.434327, 17.464531], [78.434058, 17.464535], [78.433837, 17.464425], [78.433025, 17.463971], [78.432574, 17.463781], [78.432533, 17.463783], [78.432374, 17.463782], [78.432178, 17.462816], [78.431122, 17.462853], [78.430698, 17.46296], [78.430021, 17.464258], [78.429972, 17.46438], [78.429858, 17.464719], [78.429474, 17.464546], [78.429276, 17.464481], [78.429199, 17.464528], [78.428942, 17.464638], [78.428831, 17.4647], [78.428326, 17.464922], [78.4278, 17.465156], [78.427565, 17.465251], [78.427424, 17.465308], [78.427244, 17.465384], [78.427102, 17.465446], [78.426903, 17.465547], [78.426253, 17.465867], [78.425722, 17.466081], [78.425408, 17.466459], [78.42461, 17.466358], [78.42353, 17.466161], [78.423443, 17.466136], [78.422961, 17.466013], [78.421635, 17.465769], [78.42122, 17.46567], [78.421174, 17.46563], [78.420962, 17.465056], [78.417721, 17.460874], [78.417333, 17.460218], [78.417285, 17.459975], [78.417546, 17.459651], [78.41357, 17.459409], [78.413492, 17.459423], [78.413337, 17.459427], [78.413116, 17.459376], [78.412959, 17.457974], [78.412966, 17.45792], [78.41296, 17.457864], [78.412925, 17.457624], [78.4129, 17.457482], [78.412865, 17.457278], [78.412841, 17.457141], [78.41283, 17.457068], [78.412803, 17.456867], [78.412736, 17.456552], [78.412732, 17.456522], [78.412743, 17.456355], [78.411468, 17.45621], [78.41104, 17.456156], [78.410605, 17.456141], [78.410619, 17.455751], [78.410473, 17.45575], [78.410436, 17.455647], [78.410352, 17.455421], [78.410264, 17.455205], [78.410168, 17.454984], [78.410087, 17.454768], [78.41, 17.454549], [78.409914, 17.45434], [78.409833, 17.454145], [78.409526, 17.454244], [78.408935, 17.453488], [78.408857, 17.453445], [78.408654, 17.453238], [78.40853, 17.453085], [78.408078, 17.452784], [78.407238, 17.452123], [78.40719, 17.45208], [78.406958, 17.451928], [78.406683, 17.451707], [78.406577, 17.451628], [78.406421, 17.451505], [78.40604, 17.451186], [78.405962, 17.451173], [78.405405, 17.450597], [78.405151, 17.450603], [78.404268, 17.450559], [78.403675, 17.450661], [78.4031, 17.450763], [78.40225, 17.450892], [78.402155, 17.450868], [78.400742, 17.451017], [78.400199, 17.450678], [78.399449, 17.449756], [78.399808, 17.449568], [78.399543, 17.44918], [78.399947, 17.44877], [78.399543, 17.44918], [78.398804, 17.449631], [78.398751, 17.450136], [78.398362, 17.451251], [78.397143, 17.451363], [78.396638, 17.451409], [78.396534, 17.451422], [78.394102, 17.451673], [78.393582, 17.451716], [78.393001, 17.451762], [78.392668, 17.451791], [78.391582, 17.451897], [78.390925, 17.451949], [78.389452, 17.452093], [78.387728, 17.452252], [78.387548, 17.452271], [78.387469, 17.452275], [78.387098, 17.45231], [78.386636, 17.452355], [78.385917, 17.452424], [78.382416, 17.452724], [78.382044, 17.452359], [78.381615, 17.451879], [78.381262, 17.451485], [78.381157, 17.451401], [78.380986, 17.451578], [78.380575, 17.452011], [78.378871, 17.453987], [78.377311, 17.456003], [78.376023, 17.455929], [78.375349, 17.455888], [78.375067, 17.455873], [78.374428, 17.455838], [78.373796, 17.455802], [78.373554, 17.455773], [78.373232, 17.455644], [78.37263, 17.4553], [78.372193, 17.455142], [78.370533, 17.452916], [78.372406, 17.450449], [78.373328, 17.451154], [78.374914, 17.451133], [78.373328, 17.451154], [78.372484, 17.450367], [78.372417, 17.450308], [78.372339, 17.450385], [78.369872, 17.45221], [78.370452, 17.452971], [78.371474, 17.454355], [78.37089, 17.454591], [78.370773, 17.454639], [78.370492, 17.454743], [78.370069, 17.454901], [78.369239, 17.455279], [78.369904, 17.456347], [78.369976, 17.45648], [78.368962, 17.456789], [78.369144, 17.457521], [78.369302, 17.458253], [78.366534, 17.458802], [78.366237, 17.458941], [78.365985, 17.458966], [78.365992, 17.459032], [78.365557, 17.459107], [78.365197, 17.459132], [78.365062, 17.459144], [78.365077, 17.459246], [78.364776, 17.459807], [78.36479, 17.459945], [78.364378, 17.460221], [78.3642, 17.460273], [78.364378, 17.460221], [78.36479, 17.459945], [78.364776, 17.459807], [78.365077, 17.459246], [78.365062, 17.459144], [78.365197, 17.459132], [78.365557, 17.459107], [78.365992, 17.459032], [78.366001, 17.459098], [78.36606, 17.459484], [78.366375, 17.4604], [78.366596, 17.460868], [78.366533, 17.460896], [78.366131, 17.460986], [78.36568, 17.461053], [78.365298, 17.461351], [78.365348, 17.461749], [78.365468, 17.462568], [78.365394, 17.462576], [78.365048, 17.462616], [78.364972, 17.462625], [78.365111, 17.463713], [78.364686, 17.463765], [78.364346, 17.463374], [78.364686, 17.463765], [78.365028, 17.464824], [78.365097, 17.465057], [78.364922, 17.465213], [78.36411, 17.466059], [78.364922, 17.465213], [78.365097, 17.465057], [78.365028, 17.464824], [78.365267, 17.464759], [78.365323, 17.46474], [78.365583, 17.464652], [78.365663, 17.464618], [78.366096, 17.464442], [78.366191, 17.464398], [78.366494, 17.464259], [78.366908, 17.464081], [78.367086, 17.463984], [78.367237, 17.463944], [78.367128, 17.46175], [78.367455, 17.461661], [78.368378, 17.461406], [78.369382, 17.461086], [78.36972, 17.462121], [78.370076, 17.463138], [78.369743, 17.463846], [78.370832, 17.46509], [78.37141, 17.465283], [78.371598, 17.465342], [78.372708, 17.46583], [78.374035, 17.464858], [78.375391, 17.46446], [78.375576, 17.464341], [78.375636, 17.464316], [78.375744, 17.464272], [78.375856, 17.464242], [78.37647, 17.464288], [78.377098, 17.464274], [78.377755, 17.464221], [78.377751, 17.464639], [78.377748, 17.465027], [78.377744, 17.465448], [78.378115, 17.465957], [78.378477, 17.465965], [78.378589, 17.465968], [78.37885, 17.465976], [78.379256, 17.465984], [78.379289, 17.466506], [78.379292, 17.466598], [78.380048, 17.466596], [78.380273, 17.466595], [78.380509, 17.466594], [78.381149, 17.466592], [78.38186, 17.466589], [78.382549, 17.466506], [78.382681, 17.466492], [78.38289, 17.46647], [78.384452, 17.466958], [78.385113, 17.467492], [78.385292, 17.467704], [78.383198, 17.471304], [78.382434, 17.471942], [78.381453, 17.472689], [78.384585, 17.473094], [78.382117, 17.474732], [78.378501, 17.477224], [78.378418, 17.477314], [78.378327, 17.477417], [78.378199, 17.477557], [78.377974, 17.477816], [78.375993, 17.480503], [78.375972, 17.480529], [78.375725, 17.480706], [78.375969, 17.481473], [78.376442, 17.4821], [78.376619, 17.4825], [78.377281, 17.483793], [78.377475, 17.484161], [78.378132, 17.485424], [78.378329, 17.485814], [78.37881, 17.486756], [78.378974, 17.487077], [78.378992, 17.487111], [78.37914, 17.487402], [78.379176, 17.487471], [78.379847, 17.488784], [78.380068, 17.489227], [78.380965, 17.488784], [78.381173, 17.489195], [78.381325, 17.489504], [78.38148, 17.489819], [78.381631, 17.490125], [78.381797, 17.490449], [78.381947, 17.490752], [78.38211, 17.491055], [78.382189, 17.491191], [78.382334, 17.491022], [78.38232, 17.491411], [78.382306, 17.491803], [78.38231, 17.492195], [78.382728, 17.492209], [78.383337, 17.492232], [78.383762, 17.492243], [78.384216, 17.492247], [78.384356, 17.492147], [78.384663, 17.492489], [78.384724, 17.492557], [78.384776, 17.49251], [78.385782, 17.491907], [78.385901, 17.49257], [78.386342, 17.492493], [78.386772, 17.492418], [78.386849, 17.492832], [78.386924, 17.493237], [78.386999, 17.493677], [78.38708, 17.494072], [78.386999, 17.493677], [78.386924, 17.493237], [78.386849, 17.492832], [78.386772, 17.492418], [78.387203, 17.492343], [78.386965, 17.49102], [78.386877, 17.490622], [78.385779, 17.490761], [78.386061, 17.490327], [78.386676, 17.489372], [78.386858, 17.48909], [78.386996, 17.488885], [78.387279, 17.48844], [78.3878, 17.487637], [78.388085, 17.487202], [78.388226, 17.48697], [78.388522, 17.486519], [78.389004, 17.486822], [78.389674, 17.485687], [78.390281, 17.485237], [78.390699, 17.486241], [78.390907, 17.486154], [78.390694, 17.485626], [78.390568, 17.485329], [78.390968, 17.485191], [78.391338, 17.485051], [78.391595, 17.484954], [78.391662, 17.485117], [78.392034, 17.484993], [78.392081, 17.485084], [78.392504, 17.484895], [78.392725, 17.485319], [78.392936, 17.485723], [78.39339, 17.486594], [78.39347, 17.48675], [78.393626, 17.486998], [78.394713, 17.486466], [78.394842, 17.486708], [78.394959, 17.486951], [78.39509, 17.487206], [78.395293, 17.487551], [78.395456, 17.487482], [78.395629, 17.48778], [78.395724, 17.487971], [78.395825, 17.488171], [78.396449, 17.487885], [78.396552, 17.488085], [78.39747, 17.487667], [78.397572, 17.487862], [78.39773, 17.488188], [78.397977, 17.488626], [78.398684, 17.488313], [78.39928, 17.488006], [78.398684, 17.488313], [78.398912, 17.488769], [78.399006, 17.488956], [78.399107, 17.489156], [78.398416, 17.489477], [78.398521, 17.489674], [78.398622, 17.489878], [78.39872, 17.490073], [78.398814, 17.490279], [78.398909, 17.490471], [78.399008, 17.490678], [78.399103, 17.490874], [78.399266, 17.491209], [78.398357, 17.491622], [78.397415, 17.492052], [78.398753, 17.494747], [78.398887, 17.495009], [78.397989, 17.495419], [78.398106, 17.495571], [78.399727, 17.494853], [78.399772, 17.494947], [78.401564, 17.497945], [78.402382, 17.497658], [78.402787, 17.497647], [78.402777, 17.497093], [78.402771, 17.496748], [78.403337, 17.496539], [78.403682, 17.496359], [78.404041, 17.496146], [78.404058, 17.496136], [78.404616, 17.495863], [78.405407, 17.495489], [78.405448, 17.495471], [78.404922, 17.494428], [78.404646, 17.493848], [78.406002, 17.493235], [78.405772, 17.492757], [78.405481, 17.49223], [78.406928, 17.491488], [78.407081, 17.491377], [78.407586, 17.490867], [78.40791, 17.491093], [78.408619, 17.491791], [78.408989, 17.492175], [78.40903, 17.492135], [78.40933, 17.491842], [78.409955, 17.491231], [78.410127, 17.491063], [78.410484, 17.49108], [78.410778, 17.491366], [78.41113, 17.491088], [78.411454, 17.491386], [78.411662, 17.491191], [78.41264, 17.490852], [78.412984, 17.490683], [78.413383, 17.490602], [78.413834, 17.490532], [78.413911, 17.490354], [78.414177, 17.491134], [78.414588, 17.490986], [78.414974, 17.490866], [78.415652, 17.490654], [78.417191, 17.490187], [78.417334, 17.490599], [78.418181, 17.49074], [78.418315, 17.491132], [78.418499, 17.491075], [78.418951, 17.490935], [78.419064, 17.491247], [78.419394, 17.49235], [78.420004, 17.493142], [78.420372, 17.493163], [78.420417, 17.493163], [78.420863, 17.493193], [78.421014, 17.493682], [78.42144, 17.49356], [78.421909, 17.493425], [78.422356, 17.493296], [78.424074, 17.492823], [78.424931, 17.493697], [78.424969, 17.493714], [78.425299, 17.49383], [78.425359, 17.493661], [78.425652, 17.493516], [78.426503, 17.493311], [78.428878, 17.492493], [78.429445, 17.492266], [78.432836, 17.490895], [78.433114, 17.490778], [78.433347, 17.490701], [78.433559, 17.490616], [78.433791, 17.490523], [78.434006, 17.490421], [78.434222, 17.490341], [78.434466, 17.490241], [78.434691, 17.490145], [78.434903, 17.490054], [78.43513, 17.489966], [78.435365, 17.489869], [78.435916, 17.490516], [78.436189, 17.491116], [78.436406, 17.491035], [78.436691, 17.490923], [78.438322, 17.490708], [78.438404, 17.490777], [78.438646, 17.490532], [78.438817, 17.490374], [78.439043, 17.490244], [78.43946, 17.490288], [78.439223, 17.48939], [78.439406, 17.489348], [78.439588, 17.489302], [78.439788, 17.489264], [78.439994, 17.489218], [78.440094, 17.489194], [78.440195, 17.489172], [78.440265, 17.489148], [78.440369, 17.489123], [78.440476, 17.489087], [78.440556, 17.48906], [78.440617, 17.489049], [78.440716, 17.489038], [78.440797, 17.489013], [78.440984, 17.48896], [78.441227, 17.488904], [78.4415, 17.48875], [78.441778, 17.488646], [78.442045, 17.488568], [78.44232, 17.488476], [78.442648, 17.488407], [78.442669, 17.48796], [78.442856, 17.487458], [78.442949, 17.487208], [78.443078, 17.487243], [78.443132, 17.487078], [78.443226, 17.486894], [78.443557, 17.487019], [78.443631, 17.48684], [78.44369, 17.486688], [78.443835, 17.486522], [78.444548, 17.485956], [78.444996, 17.485603], [78.445185, 17.485484], [78.445372, 17.485473], [78.445441, 17.485547], [78.445518, 17.484972], [78.445668, 17.484984], [78.445969, 17.485008], [78.446236, 17.485032], [78.446474, 17.485037], [78.446562, 17.484342], [78.446821, 17.484357], [78.446863, 17.483727], [78.447117, 17.483733], [78.447378, 17.483738], [78.447928, 17.483746], [78.448359, 17.483712], [78.448794, 17.483706], [78.449108, 17.483696], [78.449446, 17.483684], [78.449513, 17.484026], [78.449593, 17.483998], [78.447626, 17.473585]]}}, {"type": "Feature", "properties": {"vehicle": 6, "time_min": 165.94, "distance_km": 56.219, "co2_kg": 17.1241}, "geometry": {"type": "LineString", "coordinates": [[78.447626, 17.473585], [78.446662, 17.469585], [78.446262, 17.467945], [78.446224, 17.467761], [78.446466, 17.467661], [78.446419, 17.467503], [78.4464, 17.467395], [78.446348, 17.46723], [78.446299, 17.467086], [78.446736, 17.466877], [78.44671, 17.466752], [78.447557, 17.466333], [78.447921, 17.466177], [78.448612, 17.465825], [78.448878, 17.465694], [78.449042, 17.465617], [78.449195, 17.465551], [78.449375, 17.465471], [78.45026, 17.465071], [78.450114, 17.46479], [78.449082, 17.465296], [78.44911, 17.464761], [78.449357, 17.463192], [78.44937, 17.463003], [78.449419, 17.461879], [78.449437, 17.461569], [78.449514, 17.460428], [78.449564, 17.460021], [78.449668, 17.45948], [78.449871, 17.459073], [78.450078, 17.458664], [78.450225, 17.458233], [78.450329, 17.451645], [78.450273, 17.450221], [78.449976, 17.449278], [78.449872, 17.448947], [78.449688, 17.448411], [78.449585, 17.44808], [78.449294, 17.44717], [78.449727, 17.446971], [78.44995, 17.446866], [78.450429, 17.446645], [78.450502, 17.446605], [78.450667, 17.44652], [78.450888, 17.446407], [78.451052, 17.445911], [78.450945, 17.445616], [78.450773, 17.445074], [78.450413, 17.443953], [78.450598, 17.443891], [78.45102, 17.44375], [78.452046, 17.443443], [78.452511, 17.442857], [78.452511, 17.442716], [78.452508, 17.442481], [78.452507, 17.442444], [78.452509, 17.442246], [78.452506, 17.442017], [78.452458, 17.441131], [78.452477, 17.440975], [78.452501, 17.440772], [78.452534, 17.440538], [78.452613, 17.439998], [78.452715, 17.439231], [78.453005, 17.439242], [78.452871, 17.438601], [78.452836, 17.438425], [78.452794, 17.438095], [78.452787, 17.43804], [78.45274, 17.437849], [78.452693, 17.437487], [78.452615, 17.436993], [78.452576, 17.437], [78.452472, 17.436052], [78.452518, 17.436086], [78.45474, 17.435542], [78.455198, 17.435368], [78.455422, 17.435318], [78.455655, 17.435262], [78.455618, 17.435192], [78.455585, 17.434391], [78.455995, 17.433223], [78.456259, 17.431616], [78.456131, 17.430447], [78.455999, 17.430066], [78.455955, 17.429898], [78.455727, 17.429287], [78.456013, 17.428529], [78.456356, 17.428355], [78.457548, 17.426996], [78.458039, 17.427039], [78.458708, 17.4272], [78.459051, 17.427094], [78.459218, 17.427009], [78.459506, 17.426792], [78.459597, 17.426511], [78.460482, 17.425369], [78.460411, 17.424461], [78.461168, 17.424411], [78.462605, 17.423945], [78.462815, 17.422858], [78.462742, 17.42224], [78.462134, 17.41974], [78.462357, 17.419705], [78.462333, 17.419545], [78.462273, 17.419318], [78.462214, 17.419137], [78.462204, 17.419002], [78.462518, 17.418911], [78.462323, 17.418224], [78.462145, 17.417496], [78.461957, 17.416824], [78.461891, 17.416069], [78.461785, 17.414818], [78.46179, 17.41454], [78.461796, 17.414046], [78.4618, 17.413886], [78.461736, 17.413555], [78.461973, 17.412759], [78.462029, 17.412721], [78.462022, 17.412661], [78.461927, 17.41257], [78.461656, 17.412351], [78.461661, 17.412168], [78.461689, 17.41098], [78.46197, 17.409728], [78.461942, 17.409436], [78.461916, 17.408874], [78.462567, 17.40656], [78.462772, 17.406391], [78.463548, 17.405597], [78.463688, 17.40544], [78.463894, 17.405232], [78.464047, 17.405078], [78.464172, 17.404945], [78.46428, 17.404822], [78.464458, 17.404618], [78.465097, 17.403905], [78.465194, 17.40381], [78.465801, 17.403171], [78.467588, 17.402745], [78.467897, 17.402712], [78.468112, 17.402646], [78.47027, 17.401097], [78.470391, 17.400926], [78.470398, 17.400919], [78.470415, 17.400897], [78.470479, 17.400701], [78.470464, 17.400648], [78.470956, 17.39946], [78.471052, 17.399275], [78.47115, 17.399111], [78.471843, 17.398726], [78.471819, 17.398592], [78.471869, 17.398236], [78.472744, 17.396523], [78.473102, 17.394935], [78.47286, 17.394904], [78.472849, 17.393841], [78.473315, 17.393372], [78.473312, 17.393349], [78.473301, 17.392517], [78.473248, 17.392079], [78.474484, 17.392153], [78.475351, 17.391831], [78.476178, 17.391851], [78.476169, 17.391553], [78.476176, 17.391147], [78.47626, 17.390204], [78.475189, 17.390312], [78.474899, 17.390355], [78.474877, 17.390164], [78.474899, 17.390355], [78.475189, 17.390312], [78.47626, 17.390204], [78.476332, 17.389819], [78.47644, 17.389192], [78.476389, 17.388755], [78.476144, 17.388602], [78.475542, 17.388612], [78.475308, 17.388606], [78.473877, 17.388726], [78.473826, 17.388533], [78.473587, 17.387898], [78.47352, 17.387734], [78.473114, 17.387183], [78.472711, 17.386766], [78.473424, 17.385768], [78.473997, 17.384995], [78.473884, 17.384917], [78.472774, 17.384189], [78.473884, 17.384917], [78.473997, 17.384995], [78.474375, 17.384564], [78.474668, 17.384246], [78.474947, 17.383986], [78.475143, 17.383845], [78.475248, 17.383783], [78.475205, 17.38367], [78.475187, 17.383337], [78.475184, 17.3829], [78.475175, 17.38234], [78.475619, 17.382293], [78.475588, 17.381842], [78.475589, 17.381806], [78.475578, 17.381454], [78.47553, 17.380958], [78.476142, 17.380619], [78.47688, 17.380529], [78.477318, 17.38034], [78.477498, 17.380155], [78.477667, 17.380101], [78.478184, 17.379856], [78.478483, 17.379625], [78.47852, 17.379585], [78.478439, 17.378923], [78.478429, 17.378839], [78.478392, 17.378531], [78.478379, 17.378404], [78.479327, 17.377905], [78.479406, 17.377859], [78.479642, 17.377757], [78.479771, 17.377672], [78.479738, 17.3774], [78.479767, 17.377105], [78.479735, 17.376552], [78.479524, 17.375767], [78.480156, 17.375385], [78.480338, 17.37529], [78.480381, 17.375299], [78.480452, 17.375268], [78.480687, 17.375145], [78.481592, 17.374688], [78.482898, 17.373624], [78.483022, 17.373603], [78.483112, 17.373462], [78.483115, 17.373448], [78.483309, 17.373248], [78.483621, 17.372149], [78.483696, 17.372143], [78.483861, 17.372127], [78.483995, 17.372106], [78.484127, 17.372071], [78.484659, 17.372006], [78.484578, 17.371577], [78.48459, 17.371196], [78.484808, 17.371031], [78.484873, 17.37104], [78.485042, 17.370853], [78.485382, 17.370785], [78.485768, 17.370715], [78.48579, 17.370763], [78.486085, 17.370698], [78.486582, 17.370589], [78.486651, 17.370579], [78.487168, 17.370504], [78.488228, 17.370407], [78.488557, 17.370236], [78.488497, 17.370097], [78.488318, 17.369688], [78.488552, 17.369514], [78.48831, 17.36881], [78.488617, 17.368594], [78.488683, 17.368583], [78.48894, 17.368521], [78.488931, 17.368486], [78.489134, 17.368471], [78.489612, 17.368417], [78.489601, 17.368245], [78.489593, 17.367127], [78.48965, 17.366876], [78.489895, 17.366287], [78.490071, 17.366018], [78.490678, 17.365029], [78.490828, 17.364785], [78.490963, 17.364556], [78.491083, 17.364321], [78.49132, 17.363929], [78.491339, 17.36367], [78.491272, 17.36306], [78.491131, 17.36157], [78.491229, 17.361562], [78.491259, 17.361295], [78.491504, 17.360887], [78.492044, 17.360914], [78.492175, 17.360927], [78.492646, 17.360974], [78.492829, 17.360747], [78.49305, 17.360473], [78.493267, 17.360203], [78.493334, 17.360134], [78.493614, 17.359881], [78.493891, 17.359685], [78.493884, 17.359515], [78.494167, 17.359247], [78.494564, 17.358952], [78.494683, 17.3588], [78.494954, 17.358461], [78.495102, 17.358282], [78.495313, 17.35805], [78.495357, 17.357432], [78.495397, 17.357123], [78.495453, 17.356316], [78.495453, 17.356027], [78.495505, 17.356033], [78.495583, 17.355264], [78.495663, 17.355224], [78.495641, 17.355049], [78.495727, 17.355036], [78.496159, 17.354938], [78.496326, 17.354891], [78.497096, 17.354626], [78.497596, 17.354514], [78.497576, 17.354332], [78.49804, 17.354261], [78.498541, 17.354168], [78.498674, 17.354153], [78.498967, 17.354141], [78.49897, 17.354222], [78.499442, 17.354199], [78.499444, 17.354087], [78.500062, 17.353871], [78.50032, 17.353184], [78.500849, 17.353174], [78.501277, 17.353185], [78.5017, 17.353197], [78.502079, 17.353199], [78.502276, 17.353166], [78.502465, 17.35313], [78.502794, 17.35293], [78.502954, 17.352776], [78.503046, 17.352719], [78.50316, 17.352676], [78.503558, 17.352291], [78.503426, 17.351986], [78.503401, 17.351513], [78.503397, 17.351396], [78.503447, 17.351314], [78.503485, 17.351273], [78.503522, 17.351196], [78.503659, 17.350974], [78.50401, 17.351211], [78.504207, 17.350629], [78.504271, 17.350551], [78.50492, 17.34972], [78.505471, 17.349213], [78.505841, 17.348938], [78.506817, 17.348411], [78.507049, 17.348323], [78.507973, 17.348169], [78.508467, 17.348084], [78.50856, 17.348089], [78.509108, 17.348085], [78.509531, 17.348055], [78.509933, 17.347966], [78.510108, 17.347927], [78.510353, 17.34786], [78.510558, 17.347745], [78.51063, 17.347659], [78.510919, 17.347349], [78.51123, 17.347119], [78.511636, 17.346575], [78.511755, 17.346432], [78.512014, 17.346208], [78.512351, 17.345921], [78.512464, 17.34584], [78.51258, 17.345739], [78.513032, 17.345634], [78.513005, 17.344927], [78.513355, 17.34488], [78.513569, 17.344855], [78.513658, 17.344848], [78.513928, 17.344812], [78.514881, 17.344804], [78.514892, 17.344326], [78.515415, 17.344325], [78.516094, 17.344358], [78.516754, 17.344354], [78.517199, 17.34436], [78.518314, 17.34437], [78.519024, 17.344323], [78.51942, 17.344262], [78.520432, 17.344007], [78.520643, 17.344522], [78.521135, 17.344341], [78.522185, 17.343921], [78.522915, 17.343672], [78.523243, 17.343567], [78.52356, 17.343497], [78.523942, 17.343397], [78.524211, 17.343343], [78.524286, 17.343333], [78.524634, 17.343269], [78.524707, 17.34325], [78.525101, 17.343163], [78.525492, 17.343081], [78.52623, 17.343119], [78.526305, 17.343134], [78.526717, 17.34276], [78.52672, 17.342217], [78.527146, 17.342206], [78.527415, 17.342179], [78.527375, 17.34205], [78.527824, 17.341935], [78.528177, 17.341865], [78.528311, 17.341832], [78.528513, 17.341776], [78.52888, 17.341649], [78.529185, 17.34155], [78.529501, 17.341549], [78.529499, 17.341343], [78.529494, 17.340996], [78.529492, 17.34074], [78.529493, 17.340681], [78.53006, 17.340634], [78.530403, 17.340577], [78.530414, 17.340515], [78.530773, 17.340477], [78.530808, 17.339957], [78.53113, 17.34006], [78.532028, 17.340055], [78.532054, 17.339957], [78.532157, 17.339922], [78.532471, 17.339818], [78.532746, 17.339739], [78.533099, 17.339634], [78.533429, 17.33958], [78.533711, 17.339514], [78.534171, 17.339417], [78.534422, 17.339368], [78.53469, 17.339316], [78.534954, 17.338793], [78.534999, 17.338653], [78.535759, 17.338444], [78.535785, 17.338538], [78.536518, 17.338411], [78.537973, 17.338163], [78.538609, 17.33807], [78.538571, 17.337876], [78.538802, 17.337886], [78.538817, 17.337801], [78.538577, 17.337792], [78.538524, 17.337531], [78.538416, 17.336994], [78.539817, 17.336741], [78.539579, 17.336111], [78.539134, 17.335088], [78.539162, 17.334934], [78.539347, 17.334948], [78.539859, 17.334978], [78.540179, 17.33482], [78.540576, 17.334576], [78.540981, 17.33433], [78.541348, 17.334169], [78.541835, 17.334114], [78.542298, 17.334049], [78.542374, 17.334039], [78.542822, 17.333759], [78.543442, 17.333493], [78.54388, 17.333497], [78.544593, 17.333538], [78.544973, 17.333577], [78.545242, 17.33308], [78.545694, 17.333133], [78.546036, 17.333179], [78.545939, 17.333819], [78.546373, 17.333853], [78.547584, 17.334185], [78.547452, 17.334584], [78.547859, 17.334712], [78.548286, 17.334833], [78.548692, 17.334954], [78.54911, 17.335088], [78.549428, 17.335578], [78.549449, 17.335781], [78.549528, 17.336534], [78.54896, 17.336594], [78.548928, 17.337005], [78.548593, 17.337002], [78.548256, 17.337172], [78.547797, 17.337564], [78.547416, 17.337628], [78.547514, 17.338059], [78.547776, 17.338024], [78.547828, 17.338286], [78.548276, 17.338832], [78.548654, 17.338851], [78.5485, 17.339253], [78.547915, 17.340927], [78.547567, 17.341751], [78.54751, 17.341798], [78.546998, 17.341989], [78.546758, 17.342053], [78.546333, 17.342263], [78.546029, 17.342432], [78.545719, 17.342609], [78.545184, 17.342801], [78.545206, 17.342857], [78.545825, 17.342621], [78.546346, 17.342349], [78.54685, 17.342142], [78.547137, 17.34207], [78.547634, 17.341843], [78.549796, 17.341577], [78.54996, 17.341555], [78.552547, 17.341737], [78.552857, 17.341767], [78.552987, 17.341766], [78.553252, 17.341805], [78.553205, 17.342718], [78.55335, 17.343836], [78.553077, 17.344017], [78.552635, 17.34431], [78.552252, 17.344561], [78.551758, 17.344821], [78.551356, 17.344989], [78.551128, 17.345087], [78.550853, 17.345209], [78.551024, 17.345659], [78.551244, 17.346006], [78.551334, 17.346146], [78.551048, 17.34633], [78.550779, 17.346511], [78.550489, 17.34671], [78.550284, 17.346888], [78.550159, 17.346824], [78.550131, 17.346845], [78.550029, 17.346687], [78.548956, 17.347166], [78.548811, 17.346724], [78.54849, 17.345412], [78.548093, 17.345488], [78.547768, 17.345524], [78.547675, 17.34554], [78.547368, 17.345586], [78.546942, 17.345678], [78.54635, 17.345787], [78.545677, 17.345914], [78.545646, 17.34586], [78.544287, 17.346445], [78.543971, 17.346586], [78.544093, 17.346911], [78.544278, 17.347376], [78.543828, 17.34753], [78.543502, 17.34764], [78.543166, 17.347754], [78.542782, 17.347884], [78.542388, 17.348017], [78.541435, 17.348348], [78.541563, 17.348684], [78.541732, 17.349137], [78.541357, 17.3493], [78.54098, 17.349476], [78.54104, 17.349659], [78.540225, 17.350066], [78.540326, 17.35025], [78.540517, 17.350628], [78.540163, 17.350776], [78.540268, 17.351158], [78.540438, 17.351854], [78.540529, 17.352804], [78.540494, 17.352981], [78.540507, 17.353117], [78.539918, 17.353384], [78.540122, 17.353658], [78.540251, 17.353831], [78.540002, 17.353955], [78.54013, 17.354119], [78.540727, 17.354951], [78.54059, 17.355092], [78.540293, 17.355416], [78.540132, 17.355577], [78.539994, 17.355706], [78.539836, 17.35586], [78.539463, 17.35617], [78.539351, 17.356292], [78.539601, 17.356339], [78.539527, 17.356737], [78.539551, 17.356746], [78.539601, 17.357137], [78.539632, 17.357479], [78.539631, 17.357808], [78.53964, 17.358157], [78.539644, 17.358604], [78.538641, 17.358668], [78.538449, 17.358674], [78.538179, 17.358684], [78.537757, 17.35981], [78.537663, 17.359985], [78.537383, 17.360525], [78.537447, 17.360568], [78.537266, 17.360886], [78.537059, 17.361854], [78.537068, 17.362082], [78.537109, 17.362455], [78.537162, 17.36294], [78.53703, 17.363729], [78.536825, 17.363754], [78.536612, 17.36378], [78.536422, 17.3638], [78.536175, 17.363833], [78.535477, 17.364461], [78.534756, 17.364808], [78.533742, 17.365361], [78.533666, 17.365518], [78.533061, 17.365863], [78.533061, 17.366029], [78.532699, 17.366083], [78.532758, 17.366362], [78.532332, 17.366449], [78.531978, 17.36653], [78.531263, 17.367128], [78.531171, 17.366893], [78.530718, 17.366888], [78.530549, 17.366903], [78.530244, 17.367734], [78.529741, 17.367745], [78.529748, 17.368387], [78.52899, 17.368404], [78.528574, 17.368412], [78.527531, 17.368432], [78.527383, 17.368432], [78.527384, 17.368588], [78.527663, 17.368581], [78.527708, 17.369273], [78.527723, 17.369571], [78.526762, 17.369624], [78.526224, 17.369152], [78.525549, 17.369184], [78.525388, 17.368611], [78.525549, 17.369184], [78.526286, 17.370453], [78.526023, 17.37136], [78.525787, 17.371445], [78.5249, 17.371812], [78.524838, 17.371824], [78.524115, 17.371993], [78.523687, 17.372116], [78.522787, 17.37233], [78.522426, 17.372461], [78.521974, 17.372626], [78.52112, 17.372949], [78.520948, 17.372984], [78.521073, 17.37342], [78.521186, 17.373936], [78.521262, 17.374192], [78.52141, 17.374588], [78.521526, 17.374946], [78.521693, 17.375436], [78.521258, 17.375572], [78.520638, 17.375756], [78.519898, 17.375976], [78.519464, 17.376091], [78.519525, 17.376336], [78.519622, 17.376726], [78.518762, 17.376954], [78.518193, 17.377104], [78.518283, 17.377285], [78.518011, 17.377453], [78.517954, 17.377487], [78.517789, 17.377587], [78.517598, 17.377703], [78.517278, 17.377897], [78.516891, 17.378133], [78.516503, 17.378368], [78.516055, 17.378645], [78.515321, 17.377477], [78.515233, 17.377527], [78.516012, 17.378678], [78.517357, 17.380386], [78.51776, 17.380903], [78.518143, 17.381464], [78.518228, 17.38201], [78.518224, 17.382131], [78.518352, 17.382122], [78.518405, 17.382113], [78.518642, 17.382031], [78.519303, 17.381821], [78.519375, 17.381795], [78.519537, 17.382299], [78.519788, 17.38223], [78.520059, 17.382655], [78.520147, 17.383166], [78.520324, 17.383839], [78.520332, 17.383867], [78.520413, 17.38421], [78.520533, 17.384182], [78.520834, 17.385187], [78.520613, 17.385237], [78.52009, 17.385194], [78.520051, 17.385469], [78.519721, 17.385455], [78.519111, 17.385415], [78.519084, 17.385699], [78.518396, 17.385671], [78.51836, 17.385938], [78.518339, 17.386148], [78.518313, 17.386361], [78.518284, 17.386775], [78.516611, 17.386688], [78.516531, 17.386682], [78.51652, 17.386735], [78.515756, 17.386758], [78.514824, 17.387139], [78.514317, 17.387089], [78.514254, 17.387478], [78.513925, 17.387885], [78.513713, 17.387947], [78.513419, 17.388023], [78.513294, 17.388049], [78.51315, 17.388084], [78.512666, 17.388208], [78.512121, 17.388729], [78.511992, 17.388857], [78.511164, 17.389757], [78.511162, 17.389865], [78.511127, 17.390332], [78.511062, 17.390931], [78.510945, 17.391127], [78.510897, 17.39134], [78.510801, 17.392865], [78.510807, 17.393873], [78.510807, 17.393923], [78.510854, 17.394649], [78.51094, 17.394905], [78.511005, 17.395102], [78.509768, 17.395532], [78.509945, 17.395992], [78.510084, 17.396351], [78.510294, 17.396895], [78.50975, 17.397093], [78.509968, 17.397638], [78.510133, 17.398132], [78.510245, 17.398938], [78.509429, 17.399078], [78.509512, 17.399532], [78.509432, 17.399543], [78.509195, 17.399626], [78.508983, 17.399767], [78.508875, 17.399739], [78.508098, 17.399809], [78.507693, 17.39991], [78.507019, 17.40007], [78.506976, 17.4001], [78.507968, 17.400703], [78.507704, 17.401142], [78.507606, 17.401302], [78.507368, 17.401722], [78.507376, 17.402111], [78.507576, 17.402597], [78.507308, 17.402774], [78.507105, 17.402891], [78.506699, 17.403062], [78.506299, 17.403226], [78.505917, 17.403358], [78.505567, 17.403532], [78.505018, 17.403691], [78.504389, 17.403859], [78.504332, 17.403875], [78.504398, 17.404038], [78.505081, 17.405654], [78.505165, 17.405841], [78.505499, 17.406586], [78.50527, 17.407973], [78.505297, 17.408047], [78.505427, 17.408406], [78.505296, 17.408449], [78.505125, 17.408505], [78.505268, 17.408899], [78.505333, 17.409085], [78.505517, 17.409554], [78.505294, 17.409601], [78.505015, 17.409725], [78.50476, 17.409865], [78.504469, 17.410011], [78.504364, 17.41006], [78.504095, 17.410137], [78.504211, 17.410623], [78.504218, 17.41075], [78.50421, 17.410887], [78.504186, 17.411048], [78.50398, 17.411408], [78.503006, 17.412289], [78.502853, 17.412354], [78.502441, 17.412562], [78.501923, 17.412875], [78.501902, 17.413042], [78.501879, 17.413306], [78.501888, 17.413424], [78.501901, 17.413515], [78.501922, 17.413688], [78.501981, 17.414007], [78.502006, 17.414087], [78.502141, 17.414603], [78.50181, 17.414656], [78.501247, 17.414707], [78.50127, 17.415192], [78.500599, 17.415289], [78.500373, 17.415326], [78.500374, 17.415516], [78.500423, 17.415708], [78.500633, 17.41627], [78.500225, 17.416263], [78.49992, 17.416073], [78.499722, 17.416074], [78.499579, 17.416507], [78.498904, 17.41652], [78.49871, 17.416537], [78.498728, 17.416573], [78.498822, 17.416767], [78.49844, 17.416811], [78.498426, 17.417138], [78.498428, 17.417316], [78.498369, 17.417675], [78.49817, 17.417999], [78.498129, 17.418231], [78.49809, 17.41856], [78.498036, 17.418868], [78.497257, 17.418761], [78.497244, 17.418866], [78.496728, 17.418826], [78.496722, 17.419048], [78.496368, 17.419136], [78.496366, 17.419163], [78.496363, 17.419313], [78.496258, 17.420179], [78.495776, 17.420428], [78.495772, 17.420653], [78.495768, 17.420915], [78.495567, 17.420921], [78.495176, 17.420934], [78.495181, 17.421356], [78.495179, 17.421549], [78.495002, 17.421492], [78.494713, 17.421662], [78.494382, 17.42187], [78.494064, 17.422073], [78.493892, 17.421829], [78.493541, 17.422048], [78.49319, 17.422251], [78.493147, 17.423303], [78.493331, 17.423819], [78.493348, 17.423895], [78.493454, 17.424211], [78.493647, 17.424617], [78.493709, 17.42473], [78.493788, 17.424923], [78.493838, 17.425046], [78.493881, 17.425602], [78.493917, 17.425678], [78.494027, 17.42596], [78.494043, 17.426011], [78.49413, 17.42633], [78.494249, 17.426606], [78.494331, 17.426891], [78.494442, 17.427325], [78.494212, 17.427521], [78.494111, 17.427611], [78.493726, 17.427768], [78.493073, 17.427909], [78.492896, 17.428246], [78.492865, 17.428323], [78.492721, 17.428858], [78.492678, 17.429024], [78.49256, 17.429757], [78.49254, 17.429851], [78.492562, 17.430156], [78.492552, 17.430507], [78.492598, 17.430687], [78.492577, 17.430946], [78.492512, 17.431], [78.492544, 17.431061], [78.492729, 17.431661], [78.492429, 17.431737], [78.492328, 17.431758], [78.491909, 17.431836], [78.49168, 17.431917], [78.491381, 17.432034], [78.491151, 17.432123], [78.490476, 17.432393], [78.490407, 17.432292], [78.490179, 17.432382], [78.490168, 17.432891], [78.48986, 17.43289], [78.488479, 17.432878], [78.488387, 17.43288], [78.486588, 17.433234], [78.485289, 17.433716], [78.483718, 17.435113], [78.483322, 17.43553], [78.483061, 17.435824], [78.482926, 17.435983], [78.481258, 17.437865], [78.481332, 17.437929], [78.481471, 17.438165], [78.481504, 17.438299], [78.481038, 17.438818], [78.480533, 17.439396], [78.4804, 17.439549], [78.479765, 17.440513], [78.479375, 17.440485], [78.479284, 17.440452], [78.479251, 17.440506], [78.477445, 17.443217], [78.477372, 17.443304], [78.477019, 17.443397], [78.475272, 17.443568], [78.472931, 17.444011], [78.472883, 17.443354], [78.472426, 17.443353], [78.472439, 17.442963], [78.472471, 17.442736], [78.472254, 17.442725], [78.472128, 17.442688], [78.471609, 17.442528], [78.471291, 17.442563], [78.470904, 17.4426], [78.470542, 17.44265], [78.470209, 17.442694], [78.470124, 17.442148], [78.470047, 17.44163], [78.470015, 17.441364], [78.469818, 17.441384], [78.469679, 17.440527], [78.469635, 17.440357], [78.46939, 17.440351], [78.468988, 17.44035], [78.468522, 17.440352], [78.468112, 17.440332], [78.467864, 17.440318], [78.467593, 17.4403], [78.467259, 17.440314], [78.466929, 17.440329], [78.466873, 17.4398], [78.464562, 17.440531], [78.464211, 17.440156], [78.463868, 17.4405], [78.463637, 17.440696], [78.46341, 17.440872], [78.463302, 17.440964], [78.46301, 17.440703], [78.462908, 17.440827], [78.46278, 17.440997], [78.462654, 17.441191], [78.462384, 17.441585], [78.462091, 17.442025], [78.461986, 17.442197], [78.46177, 17.442514], [78.460861, 17.443855], [78.460756, 17.444011], [78.462122, 17.444599], [78.461577, 17.445498], [78.46063, 17.446244], [78.460044, 17.446647], [78.459578, 17.446978], [78.459319, 17.447164], [78.458816, 17.447547], [78.458092, 17.447526], [78.457361, 17.447432], [78.457124, 17.447733], [78.456917, 17.448146], [78.456741, 17.448548], [78.451898, 17.451454], [78.451063, 17.45172], [78.450616, 17.454096], [78.450575, 17.454258], [78.450561, 17.454369], [78.450562, 17.454461], [78.450552, 17.454584], [78.450547, 17.454654], [78.450541, 17.454722], [78.450537, 17.454775], [78.450531, 17.45485], [78.450524, 17.454935], [78.45052, 17.45499], [78.45052, 17.455068], [78.450542, 17.455163], [78.450594, 17.455365], [78.450568, 17.455458], [78.450545, 17.455547], [78.450582, 17.455758], [78.450738, 17.456251], [78.450751, 17.456399], [78.450752, 17.456502], [78.450174, 17.458213], [78.449636, 17.45947], [78.449475, 17.460489], [78.449425, 17.46086], [78.449414, 17.461099], [78.449384, 17.46153], [78.449362, 17.46187], [78.44833, 17.462037], [78.447867, 17.462063], [78.44715, 17.462073], [78.444319, 17.462233], [78.443855, 17.462252], [78.443312, 17.462267], [78.443359, 17.463217], [78.444402, 17.463772], [78.444236, 17.465428], [78.444423, 17.465575], [78.444091, 17.466201], [78.444943, 17.467236], [78.444735, 17.467332], [78.44494, 17.467634], [78.44541, 17.467376], [78.446024, 17.467446], [78.446572, 17.469602], [78.446683, 17.470051], [78.446693, 17.470095], [78.447527, 17.473604], [78.447626, 17.473585]]}}]}