{"type": "FeatureCollection", "features": [{"type": "Feature", "properties": {"vehicle": 1, "time_min": 102.308, "distance_km": 39.669, "co2_kg": 11.1575}, "geometry": {"type": "LineString", "coordinates": [[78.447626, 17.473585], [78.446662, 17.469585], [78.446262, 17.467945], [78.446224, 17.467761], [78.44609, 17.467166], [78.446063, 17.467083], [78.44671, 17.466752], [78.447557, 17.466333], [78.447921, 17.466177], [78.448612, 17.465825], [78.448878, 17.465694], [78.449042, 17.465617], [78.449195, 17.465551], [78.449375, 17.465471], [78.45026, 17.465071], [78.450114, 17.46479], [78.449082, 17.465296], [78.44911, 17.464761], [78.449357, 17.463192], [78.44937, 17.463003], [78.449419, 17.461879], [78.449437, 17.461569], [78.449514, 17.460428], [78.449564, 17.460021], [78.449668, 17.45948], [78.449871, 17.459073], [78.450078, 17.458664], [78.450225, 17.458233], [78.450329, 17.451645], [78.450273, 17.450221], [78.449976, 17.449278], [78.449872, 17.448947], [78.449688, 17.448411], [78.449585, 17.44808], [78.449294, 17.44717], [78.449121, 17.446668], [78.449032, 17.445655], [78.44899, 17.445103], [78.448945, 17.444696], [78.448918, 17.444434], [78.448789, 17.443691], [78.448726, 17.443333], [78.448599, 17.442602], [78.448464, 17.44174], [78.448422, 17.441479], [78.448417, 17.441437], [78.448391, 17.441066], [78.448334, 17.440365], [78.448266, 17.43954], [78.448295, 17.438778], [78.448313, 17.437818], [78.448337, 17.437489], [78.448244, 17.437486], [78.446925, 17.437218], [78.445893, 17.437026], [78.445707, 17.436993], [78.445128, 17.436887], [78.444321, 17.436771], [78.444107, 17.436699], [78.443871, 17.436652], [78.44167, 17.437381], [78.440032, 17.437306], [78.440006, 17.437223], [78.439892, 17.436926], [78.439746, 17.436611], [78.439558, 17.436472], [78.438769, 17.436243], [78.438105, 17.436123], [78.436514, 17.436171], [78.436493, 17.435858], [78.436474, 17.435548], [78.436403, 17.435196], [78.436151, 17.434338], [78.436467, 17.434121], [78.436549, 17.433997], [78.436638, 17.433876], [78.436487, 17.433388], [78.436237, 17.432606], [78.436096, 17.431994], [78.435989, 17.431582], [78.435846, 17.431021], [78.435718, 17.430281], [78.435698, 17.430179], [78.434874, 17.430211], [78.434445, 17.430128], [78.434265, 17.430075], [78.433452, 17.429687], [78.433476, 17.429251], [78.433478, 17.429165], [78.433487, 17.428813], [78.433494, 17.428558], [78.432444, 17.428117], [78.432324, 17.427572], [78.432285, 17.427274], [78.432354, 17.426762], [78.432454, 17.426252], [78.433033, 17.426323], [78.433458, 17.425084], [78.43349, 17.424988], [78.432792, 17.424818], [78.432949, 17.423822], [78.432249, 17.42396], [78.431518, 17.424018], [78.432249, 17.42396], [78.431584, 17.423176], [78.431, 17.422251], [78.43221, 17.421992], [78.430831, 17.422207], [78.430757, 17.421836], [78.430734, 17.42162], [78.430703, 17.421414], [78.430603, 17.420767], [78.430563, 17.420503], [78.430473, 17.419911], [78.43035, 17.419252], [78.429297, 17.419184], [78.429362, 17.418827], [78.429342, 17.418058], [78.429111, 17.417321], [78.429124, 17.417258], [78.428902, 17.417081], [78.428796, 17.417139], [78.427903, 17.417522], [78.42791, 17.417629], [78.427903, 17.417522], [78.426065, 17.41595], [78.426001, 17.415769], [78.425595, 17.414638], [78.425587, 17.414576], [78.425475, 17.414467], [78.425387, 17.414459], [78.425198, 17.41442], [78.424452, 17.414189], [78.424224, 17.414169], [78.423646, 17.414197], [78.422471, 17.41458], [78.421666, 17.414963], [78.421177, 17.415846], [78.419826, 17.416008], [78.419633, 17.415969], [78.417988, 17.416611], [78.417389, 17.416892], [78.41562, 17.417287], [78.415468, 17.417324], [78.4147, 17.417537], [78.414162, 17.417705], [78.413175, 17.418311], [78.412537, 17.419138], [78.411674, 17.418394], [78.411613, 17.418301], [78.41151, 17.418364], [78.410862, 17.421122], [78.41081, 17.421217], [78.410781, 17.421364], [78.41101, 17.422196], [78.407414, 17.42624], [78.407207, 17.426094], [78.4069, 17.42601], [78.40642, 17.426048], [78.406201, 17.426102], [78.405412, 17.426503], [78.405089, 17.426681], [78.404832, 17.426846], [78.403656, 17.42787], [78.403548, 17.427932], [78.401689, 17.426749], [78.401339, 17.426679], [78.40062, 17.426567], [78.399394, 17.426319], [78.399038, 17.426115], [78.396236, 17.425532], [78.395114, 17.425048], [78.395373, 17.42433], [78.395455, 17.424052], [78.39553, 17.423875], [78.394626, 17.423393], [78.394732, 17.422911], [78.39483, 17.422297], [78.394263, 17.422243], [78.394184, 17.423158], [78.39414, 17.423636], [78.394008, 17.424236], [78.392462, 17.423106], [78.389606, 17.417792], [78.389704, 17.417725], [78.390775, 17.417082], [78.390673, 17.416849], [78.39021, 17.417097], [78.389595, 17.417457], [78.389461, 17.417529], [78.388647, 17.418009], [78.388408, 17.418145], [78.387331, 17.418981], [78.385727, 17.420193], [78.382527, 17.422372], [78.382141, 17.422568], [78.381973, 17.422659], [78.38156, 17.422927], [78.380516, 17.423718], [78.38002, 17.424123], [78.379399, 17.424638], [78.379014, 17.424982], [78.377257, 17.426268], [78.374523, 17.428894], [78.373796, 17.42976], [78.373526, 17.43001], [78.373026, 17.430438], [78.37208, 17.431178], [78.371434, 17.431675], [78.370456, 17.432401], [78.369971, 17.4329], [78.369474, 17.433428], [78.369201, 17.4331], [78.368868, 17.432698], [78.368753, 17.43256], [78.368441, 17.432184], [78.368287, 17.432294], [78.367923, 17.432556], [78.367658, 17.432216], [78.367057, 17.431448], [78.366705, 17.431679], [78.366332, 17.431923], [78.365979, 17.432154], [78.364899, 17.432861], [78.364526, 17.433105], [78.365385, 17.43438], [78.365859, 17.435043], [78.366009, 17.435277], [78.366605, 17.436206], [78.364987, 17.437534], [78.365166, 17.437747], [78.365918, 17.437134], [78.366088, 17.437333], [78.3662, 17.437464], [78.366393, 17.437787], [78.365995, 17.437927], [78.366144, 17.438231], [78.36652, 17.439121], [78.366675, 17.439736], [78.366864, 17.440652], [78.36624, 17.4411], [78.365405, 17.441436], [78.365356, 17.441282], [78.365133, 17.44142], [78.364881, 17.441568], [78.364574, 17.441719], [78.364464, 17.441536], [78.364226, 17.441084], [78.364154, 17.440916], [78.364226, 17.441084], [78.364464, 17.441536], [78.364574, 17.441719], [78.364881, 17.441568], [78.364427, 17.440778], [78.364422, 17.440319], [78.364443, 17.440004], [78.364135, 17.439997], [78.364142, 17.439677], [78.364151, 17.439324], [78.364142, 17.439677], [78.364135, 17.439997], [78.364443, 17.440004], [78.364464, 17.439374], [78.364384, 17.438384], [78.364608, 17.438199], [78.369158, 17.440607], [78.369325, 17.440558], [78.371009, 17.440167], [78.37151, 17.439974], [78.371626, 17.43995], [78.371794, 17.442128], [78.371818, 17.442216], [78.373853, 17.441511], [78.374731, 17.4411], [78.375428, 17.440666], [78.376955, 17.439826], [78.376989, 17.43986], [78.376998, 17.440001], [78.377011, 17.441322], [78.377145, 17.441434], [78.377136, 17.442195], [78.37711, 17.443422], [78.374314, 17.447984], [78.374402, 17.447994], [78.374475, 17.447747], [78.376845, 17.443543], [78.37709, 17.443778], [78.37782, 17.446986], [78.37945, 17.450281], [78.380448, 17.451218], [78.380608, 17.451327], [78.380986, 17.451578], [78.381086, 17.451656], [78.381262, 17.451485], [78.381558, 17.451178], [78.382245, 17.450267], [78.384839, 17.446769], [78.385844, 17.44557], [78.386464, 17.444858], [78.38677, 17.445104], [78.387117, 17.445343], [78.387149, 17.445388], [78.387351, 17.445975], [78.387766, 17.445896], [78.388185, 17.445819], [78.388444, 17.445961], [78.38876, 17.446123], [78.389149, 17.446332], [78.389223, 17.44637], [78.389885, 17.446697], [78.389324, 17.445927], [78.389885, 17.446697], [78.389989, 17.446735], [78.390508, 17.446785], [78.391032, 17.446829], [78.391206, 17.445365], [78.391342, 17.444602], [78.391437, 17.444359], [78.391615, 17.443735], [78.39185, 17.443526], [78.391749, 17.443225], [78.391655, 17.442844], [78.391614, 17.442406], [78.392504, 17.442185], [78.393086, 17.442046], [78.393222, 17.442425], [78.393478, 17.443143], [78.39354, 17.4433], [78.393785, 17.443983], [78.394184, 17.445138], [78.394779, 17.446711], [78.394972, 17.447239], [78.395758, 17.449317], [78.396534, 17.451422], [78.396575, 17.451509], [78.396676, 17.4515], [78.39837, 17.451337], [78.399321, 17.45124], [78.399558, 17.451215], [78.399965, 17.451181], [78.40225, 17.450892], [78.4031, 17.450763], [78.403675, 17.450661], [78.404268, 17.450559], [78.405151, 17.450603], [78.405405, 17.450597], [78.405962, 17.451173], [78.40604, 17.451186], [78.406421, 17.451505], [78.406577, 17.451628], [78.406683, 17.451707], [78.406958, 17.451928], [78.40719, 17.45208], [78.407238, 17.452123], [78.408078, 17.452784], [78.40853, 17.453085], [78.408654, 17.453238], [78.408857, 17.453445], [78.408935, 17.453488], [78.409526, 17.454244], [78.409833, 17.454145], [78.409914, 17.45434], [78.41, 17.454549], [78.410794, 17.454258], [78.410989, 17.454187], [78.411292, 17.45408], [78.411585, 17.453967], [78.411789, 17.453899], [78.413009, 17.453499], [78.413218, 17.453464], [78.413441, 17.453445], [78.413661, 17.453422], [78.413891, 17.453406], [78.414028, 17.453403], [78.41414, 17.453411], [78.414367, 17.45343], [78.414557, 17.453474], [78.414688, 17.453505], [78.414828, 17.453541], [78.414949, 17.453563], [78.415188, 17.453622], [78.415412, 17.453692], [78.415443, 17.453709], [78.415458, 17.453754], [78.415602, 17.453886], [78.415716, 17.454049], [78.415949, 17.454219], [78.416078, 17.45422], [78.416326, 17.454186], [78.416912, 17.454082], [78.417459, 17.454041], [78.417598, 17.454036], [78.417645, 17.454032], [78.417802, 17.454022], [78.417902, 17.45402], [78.417965, 17.454016], [78.418095, 17.454005], [78.418457, 17.453978], [78.418533, 17.453972], [78.418863, 17.453958], [78.419584, 17.453965], [78.419915, 17.453954], [78.42034, 17.453969], [78.420403, 17.453971], [78.420472, 17.453976], [78.420896, 17.454005], [78.421136, 17.454015], [78.421233, 17.454021], [78.42145, 17.454036], [78.421674, 17.45412], [78.4219, 17.454159], [78.422498, 17.454263], [78.422622, 17.454287], [78.423221, 17.45442], [78.424582, 17.45455], [78.424681, 17.454495], [78.426128, 17.454516], [78.426152, 17.45531], [78.426736, 17.455158], [78.427316, 17.455546], [78.427752, 17.456046], [78.428308, 17.456682], [78.428682, 17.457118], [78.429086, 17.457546], [78.429276, 17.45778], [78.429911, 17.458096], [78.43032, 17.458264], [78.431111, 17.458579], [78.432432, 17.459118], [78.432548, 17.459162], [78.42916, 17.466475], [78.427618, 17.469526], [78.427466, 17.469716], [78.427333, 17.469904], [78.427162, 17.470151], [78.427287, 17.470259], [78.427634, 17.46976], [78.427929, 17.469333], [78.428214, 17.468852], [78.429192, 17.466761], [78.429318, 17.466511], [78.43035, 17.464523], [78.430544, 17.464096], [78.431122, 17.462853], [78.432178, 17.462816], [78.432693, 17.462815], [78.433295, 17.462732], [78.433398, 17.462736], [78.434486, 17.462688], [78.436479, 17.462562], [78.438459, 17.462419], [78.439487, 17.462351], [78.440449, 17.462287], [78.441305, 17.463007], [78.441952, 17.463556], [78.442298, 17.463827], [78.44321, 17.464556], [78.444236, 17.465428], [78.444423, 17.465575], [78.44528, 17.466224], [78.445518, 17.466475], [78.44558, 17.466592], [78.445488, 17.466989], [78.444943, 17.467236], [78.444735, 17.467332], [78.44494, 17.467634], [78.44541, 17.467376], [78.446024, 17.467446], [78.446572, 17.469602], [78.446683, 17.470051], [78.446693, 17.470095], [78.447527, 17.473604], [78.447626, 17.473585]]}}, {"type": "Feature", "properties": {"vehicle": 2, "time_min": 56.99, "distance_km": 22.206, "co2_kg": 6.2251}, "geometry": {"type": "LineString", "coordinates": [[78.447626, 17.473585], [78.446662, 17.469585], [78.446262, 17.467945], [78.446224, 17.467761], [78.44609, 17.467166], [78.446063, 17.467083], [78.44671, 17.466752], [78.447557, 17.466333], [78.447921, 17.466177], [78.448612, 17.465825], [78.448878, 17.465694], [78.449042, 17.465617], [78.449195, 17.465551], [78.449375, 17.465471], [78.45026, 17.465071], [78.452724, 17.463831], [78.452808, 17.463801], [78.453275, 17.463676], [78.454001, 17.463541], [78.454148, 17.463533], [78.454933, 17.463584], [78.455358, 17.463628], [78.456255, 17.463721], [78.456712, 17.463762], [78.457902, 17.463898], [78.458743, 17.463859], [78.460938, 17.463159], [78.461284, 17.463041], [78.461818, 17.462858], [78.462359, 17.462674], [78.470046, 17.462277], [78.470357, 17.462369], [78.471503, 17.462733], [78.471759, 17.462809], [78.472003, 17.462876], [78.472671, 17.463861], [78.472642, 17.464034], [78.472792, 17.464096], [78.47289, 17.463907], [78.473236, 17.463544], [78.473259, 17.463524], [78.474568, 17.46243], [78.475696, 17.461407], [78.475775, 17.461022], [78.475778, 17.460928], [78.47579, 17.460803], [78.475816, 17.460511], [78.475906, 17.460078], [78.476646, 17.459274], [78.477652, 17.458433], [78.481152, 17.454788], [78.482973, 17.455798], [78.484624, 17.456752], [78.484806, 17.456856], [78.48484, 17.456874], [78.484968, 17.456932], [78.485063, 17.456974], [78.48506, 17.456848], [78.485036, 17.456523], [78.485022, 17.455986], [78.485174, 17.45555], [78.485646, 17.454266], [78.486273, 17.451626], [78.486358, 17.451482], [78.488119, 17.450799], [78.488187, 17.450768], [78.492716, 17.448942], [78.49293, 17.448844], [78.49301, 17.448782], [78.493101, 17.448696], [78.494265, 17.447532], [78.496109, 17.445952], [78.496206, 17.445893], [78.496554, 17.445562], [78.497583, 17.44453], [78.497935, 17.44417], [78.498129, 17.44423], [78.499892, 17.445445], [78.499599, 17.445968], [78.499183, 17.44573], [78.499599, 17.445968], [78.499892, 17.445445], [78.498129, 17.44423], [78.497935, 17.44417], [78.498546, 17.44325], [78.498548, 17.443229], [78.498558, 17.443074], [78.498554, 17.442906], [78.498795, 17.441654], [78.498849, 17.441144], [78.498872, 17.440842], [78.498929, 17.440404], [78.499677, 17.437987], [78.499799, 17.437649], [78.499976, 17.437158], [78.500143, 17.436738], [78.500457, 17.435929], [78.500788, 17.435879], [78.501012, 17.435841], [78.501306, 17.435792], [78.501396, 17.435776], [78.501506, 17.435763], [78.50171, 17.435685], [78.501928, 17.435623], [78.502112, 17.435551], [78.50214, 17.435539], [78.502392, 17.435432], [78.502516, 17.435327], [78.502691, 17.435202], [78.502966, 17.435146], [78.502691, 17.435202], [78.502516, 17.435327], [78.502392, 17.435432], [78.50214, 17.435539], [78.502112, 17.435551], [78.501928, 17.435623], [78.50171, 17.435685], [78.501506, 17.435763], [78.501396, 17.435776], [78.501306, 17.435792], [78.501012, 17.435841], [78.500788, 17.435879], [78.500457, 17.435929], [78.500554, 17.435714], [78.500429, 17.435665], [78.500333, 17.435594], [78.499808, 17.435873], [78.499594, 17.435354], [78.499074, 17.434729], [78.498922, 17.434699], [78.498165, 17.433847], [78.49727, 17.433392], [78.496831, 17.433497], [78.495982, 17.433785], [78.49587, 17.433795], [78.495686, 17.433809], [78.494469, 17.433287], [78.493596, 17.43315], [78.493253, 17.433152], [78.492878, 17.431822], [78.492657, 17.431074], [78.492577, 17.430946], [78.492598, 17.430687], [78.492562, 17.430156], [78.49254, 17.429851], [78.492232, 17.42903], [78.491356, 17.428986], [78.49142, 17.428573], [78.490849, 17.42812], [78.49142, 17.428573], [78.491356, 17.428986], [78.490713, 17.428962], [78.490278, 17.429106], [78.490066, 17.428988], [78.489193, 17.428695], [78.487889, 17.428441], [78.48778, 17.428462], [78.487825, 17.428546], [78.488062, 17.429444], [78.488224, 17.430744], [78.488297, 17.431493], [78.488334, 17.431865], [78.488387, 17.43288], [78.486588, 17.433234], [78.485289, 17.433716], [78.483718, 17.435113], [78.483322, 17.43553], [78.483061, 17.435824], [78.482926, 17.435983], [78.481258, 17.437865], [78.479333, 17.44038], [78.479284, 17.440452], [78.479251, 17.440506], [78.477445, 17.443217], [78.477372, 17.443304], [78.477019, 17.443397], [78.475272, 17.443568], [78.472931, 17.444011], [78.472448, 17.444094], [78.471599, 17.444042], [78.471176, 17.444051], [78.470834, 17.444056], [78.47073, 17.444059], [78.470219, 17.444094], [78.470247, 17.444258], [78.470254, 17.444297], [78.470247, 17.444258], [78.470219, 17.444094], [78.468811, 17.444288], [78.468197, 17.444404], [78.467204, 17.444624], [78.466398, 17.444759], [78.465922, 17.444853], [78.4655, 17.444917], [78.464922, 17.444987], [78.464454, 17.445015], [78.462902, 17.444695], [78.460861, 17.443855], [78.460756, 17.444011], [78.462122, 17.444599], [78.462821, 17.444804], [78.464044, 17.445122], [78.464483, 17.445166], [78.465973, 17.444983], [78.466125, 17.445687], [78.465842, 17.446671], [78.465192, 17.447106], [78.463612, 17.4482], [78.463235, 17.448173], [78.462731, 17.448142], [78.462624, 17.448139], [78.462426, 17.447503], [78.461784, 17.447745], [78.461604, 17.447813], [78.461147, 17.447986], [78.460718, 17.448127], [78.46025, 17.448227], [78.460193, 17.448879], [78.459768, 17.448835], [78.45934, 17.448795], [78.457966, 17.44865], [78.456741, 17.448548], [78.451898, 17.451454], [78.451063, 17.45172], [78.450616, 17.454096], [78.450575, 17.454258], [78.450561, 17.454369], [78.450562, 17.454461], [78.450552, 17.454584], [78.450547, 17.454654], [78.450541, 17.454722], [78.450537, 17.454775], [78.450531, 17.45485], [78.450524, 17.454935], [78.45052, 17.45499], [78.45052, 17.455068], [78.450542, 17.455163], [78.450594, 17.455365], [78.450568, 17.455458], [78.450545, 17.455547], [78.450582, 17.455758], [78.450738, 17.456251], [78.450751, 17.456399], [78.450752, 17.456502], [78.450174, 17.458213], [78.449636, 17.45947], [78.449475, 17.460489], [78.449425, 17.46086], [78.449414, 17.461099], [78.449384, 17.46153], [78.449362, 17.46187], [78.449302, 17.462652], [78.449282, 17.462971], [78.449272, 17.463191], [78.449258, 17.463675], [78.449174, 17.464243], [78.449029, 17.464787], [78.448706, 17.465487], [78.448038, 17.465772], [78.44774, 17.46591], [78.446629, 17.466424], [78.446224, 17.466621], [78.445855, 17.466802], [78.445752, 17.466855], [78.445488, 17.466989], [78.444943, 17.467236], [78.444735, 17.467332], [78.44494, 17.467634], [78.44541, 17.467376], [78.446024, 17.467446], [78.446572, 17.469602], [78.446683, 17.470051], [78.446693, 17.470095], [78.447527, 17.473604], [78.447626, 17.473585]]}}, {"type": "Feature", "properties": {"vehicle": 3, "time_min": 91.084, "distance_km": 35.31, "co2_kg": 9.9256}, "geometry": {"type": "LineString", "coordinates": [[78.447626, 17.473585], [78.446662, 17.469585], [78.446262, 17.467945], [78.446224, 17.467761], [78.44609, 17.467166], [78.446063, 17.467083], [78.44671, 17.466752], [78.447557, 17.466333], [78.447921, 17.466177], [78.448612, 17.465825], [78.448878, 17.465694], [78.449042, 17.465617], [78.449195, 17.465551], [78.449375, 17.465471], [78.45026, 17.465071], [78.450114, 17.46479], [78.449082, 17.465296], [78.44911, 17.464761], [78.449357, 17.463192], [78.44937, 17.463003], [78.449419, 17.461879], [78.449437, 17.461569], [78.449514, 17.460428], [78.449564, 17.460021], [78.449668, 17.45948], [78.449871, 17.459073], [78.450078, 17.458664], [78.450225, 17.458233], [78.450329, 17.451645], [78.450273, 17.450221], [78.449976, 17.449278], [78.449872, 17.448947], [78.449688, 17.448411], [78.449585, 17.44808], [78.449294, 17.44717], [78.449121, 17.446668], [78.449032, 17.445655], [78.44899, 17.445103], [78.448945, 17.444696], [78.448918, 17.444434], [78.448789, 17.443691], [78.448726, 17.443333], [78.448599, 17.442602], [78.448464, 17.44174], [78.448422, 17.441479], [78.448417, 17.441437], [78.448391, 17.441066], [78.448334, 17.440365], [78.448266, 17.43954], [78.448295, 17.438778], [78.448313, 17.437818], [78.448337, 17.437489], [78.448244, 17.437486], [78.446925, 17.437218], [78.445893, 17.437026], [78.445707, 17.436993], [78.445128, 17.436887], [78.444321, 17.436771], [78.444147, 17.436609], [78.444289, 17.436383], [78.444353, 17.436283], [78.445149, 17.434938], [78.445759, 17.434094], [78.446026, 17.433788], [78.446608, 17.433102], [78.447042, 17.432577], [78.447269, 17.432327], [78.447566, 17.43199], [78.447958, 17.431618], [78.448027, 17.431564], [78.448437, 17.431256], [78.448957, 17.430867], [78.449954, 17.430156], [78.450408, 17.429778], [78.451391, 17.428366], [78.451715, 17.427922], [78.451948, 17.427603], [78.452292, 17.427104], [78.452392, 17.426957], [78.452518, 17.426755], [78.45281, 17.426245], [78.453085, 17.42576], [78.453224, 17.425521], [78.453769, 17.424563], [78.453976, 17.424168], [78.454961, 17.422463], [78.455, 17.422398], [78.455322, 17.421864], [78.455686, 17.421304], [78.456061, 17.420719], [78.456362, 17.42024], [78.456808, 17.419553], [78.456998, 17.419208], [78.457191, 17.417995], [78.457693, 17.416227], [78.459596, 17.413767], [78.459885, 17.4136], [78.460051, 17.413493], [78.460112, 17.413421], [78.460195, 17.413318], [78.460457, 17.412856], [78.460982, 17.411016], [78.460874, 17.409942], [78.460848, 17.409876], [78.460597, 17.409078], [78.460535, 17.408508], [78.460523, 17.408253], [78.460543, 17.407865], [78.460736, 17.407183], [78.461094, 17.406982], [78.46172, 17.406796], [78.462567, 17.40656], [78.462772, 17.406391], [78.463548, 17.405597], [78.463688, 17.40544], [78.463894, 17.405232], [78.464047, 17.405078], [78.464172, 17.404945], [78.46428, 17.404822], [78.464458, 17.404618], [78.464465, 17.404422], [78.46504, 17.403841], [78.464986, 17.403775], [78.464758, 17.403957], [78.463053, 17.403068], [78.46289, 17.402996], [78.462381, 17.402814], [78.462284, 17.40263], [78.462426, 17.401456], [78.46247, 17.401332], [78.462578, 17.401029], [78.462802, 17.400373], [78.462806, 17.399573], [78.46279, 17.399418], [78.462724, 17.398842], [78.462733, 17.398424], [78.462724, 17.398253], [78.462725, 17.397645], [78.462728, 17.397317], [78.462721, 17.396976], [78.4627, 17.396465], [78.462686, 17.396127], [78.462678, 17.396047], [78.462585, 17.394261], [78.462585, 17.3942], [78.462313, 17.394258], [78.462275, 17.393948], [78.462065, 17.393579], [78.462006, 17.393502], [78.461919, 17.393507], [78.461798, 17.393224], [78.461774, 17.393187], [78.461625, 17.392808], [78.461441, 17.392314], [78.461196, 17.391649], [78.460897, 17.390904], [78.460766, 17.390601], [78.460143, 17.390714], [78.459544, 17.390659], [78.459192, 17.390533], [78.458815, 17.390385], [78.458377, 17.390193], [78.457811, 17.390099], [78.457402, 17.390133], [78.457157, 17.390138], [78.45614, 17.389671], [78.456016, 17.389585], [78.455487, 17.389219], [78.455362, 17.389133], [78.455376, 17.38907], [78.455287, 17.389032], [78.455252, 17.389065], [78.455129, 17.38909], [78.455015, 17.389118], [78.454254, 17.389311], [78.454116, 17.389363], [78.453599, 17.389497], [78.453051, 17.389614], [78.45243, 17.389749], [78.452108, 17.389814], [78.451717, 17.389893], [78.451667, 17.389905], [78.451131, 17.390068], [78.451041, 17.390106], [78.450597, 17.390346], [78.449793, 17.390857], [78.449599, 17.39102], [78.448616, 17.391561], [78.447394, 17.392146], [78.446997, 17.392322], [78.446693, 17.392469], [78.446433, 17.392598], [78.446129, 17.392741], [78.445704, 17.392932], [78.4453, 17.393136], [78.444921, 17.393319], [78.444165, 17.393556], [78.443859, 17.39363], [78.443479, 17.393716], [78.442947, 17.393852], [78.442888, 17.393866], [78.442379, 17.39393], [78.442356, 17.393473], [78.442257, 17.392832], [78.442092, 17.392006], [78.441552, 17.391223], [78.441227, 17.390908], [78.441169, 17.390852], [78.441059, 17.390748], [78.440991, 17.390676], [78.440389, 17.389977], [78.44016, 17.389777], [78.44006, 17.389605], [78.439883, 17.389175], [78.439437, 17.389275], [78.439003, 17.389377], [78.438383, 17.389421], [78.438109, 17.389014], [78.43872, 17.388884], [78.438609, 17.38849], [78.43872, 17.388884], [78.438109, 17.389014], [78.437309, 17.389317], [78.437448, 17.389726], [78.437699, 17.390345], [78.437915, 17.390953], [78.437677, 17.391045], [78.437325, 17.391178], [78.43745, 17.391556], [78.43757, 17.391981], [78.437695, 17.392528], [78.437804, 17.393037], [78.438171, 17.394762], [78.437595, 17.39481], [78.436714, 17.394914], [78.436318, 17.39496], [78.436124, 17.394973], [78.435267, 17.395031], [78.434346, 17.3951], [78.43393, 17.395139], [78.433582, 17.39517], [78.433053, 17.395297], [78.432462, 17.395588], [78.43225, 17.395661], [78.431362, 17.395756], [78.4308, 17.395776], [78.43054, 17.395796], [78.430485, 17.395333], [78.430423, 17.394802], [78.42993, 17.394872], [78.430423, 17.394802], [78.430485, 17.395333], [78.43054, 17.395796], [78.429022, 17.395885], [78.428586, 17.395908], [78.427908, 17.395891], [78.427783, 17.395826], [78.427621, 17.395909], [78.4276, 17.395963], [78.42579, 17.396191], [78.425379, 17.396245], [78.424353, 17.396428], [78.423159, 17.396602], [78.422484, 17.396725], [78.421242, 17.396953], [78.419422, 17.397747], [78.41903, 17.397905], [78.418959, 17.397505], [78.418731, 17.397317], [78.418616, 17.39686], [78.418397, 17.396177], [78.418443, 17.396139], [78.418255, 17.395185], [78.418134, 17.394616], [78.418075, 17.394317], [78.417382, 17.394455], [78.417397, 17.394242], [78.41741, 17.39398], [78.417402, 17.393558], [78.416784, 17.39354], [78.416675, 17.393708], [78.416489, 17.393609], [78.415152, 17.394076], [78.415, 17.393911], [78.414723, 17.393779], [78.414675, 17.393619], [78.414572, 17.393634], [78.414503, 17.393922], [78.414572, 17.393634], [78.414675, 17.393619], [78.414723, 17.393779], [78.415, 17.393911], [78.415152, 17.394076], [78.416489, 17.393609], [78.416675, 17.393708], [78.416784, 17.39354], [78.417402, 17.393558], [78.41741, 17.39398], [78.417397, 17.394242], [78.417382, 17.394455], [78.417377, 17.394664], [78.417371, 17.394763], [78.417356, 17.394897], [78.417346, 17.395093], [78.417346, 17.395391], [78.417367, 17.395618], [78.41742, 17.396337], [78.417427, 17.396523], [78.417441, 17.396609], [78.417486, 17.396954], [78.417451, 17.397142], [78.417302, 17.397439], [78.417133, 17.397807], [78.417092, 17.397982], [78.416886, 17.398326], [78.416859, 17.398362], [78.416816, 17.398547], [78.416857, 17.398706], [78.41776, 17.398635], [78.418738, 17.398333], [78.418774, 17.398311], [78.419296, 17.397969], [78.420231, 17.397429], [78.4205, 17.397811], [78.42086, 17.397966], [78.421173, 17.398097], [78.42086, 17.397966], [78.420512, 17.39872], [78.420316, 17.398599], [78.419652, 17.399559], [78.419713, 17.399672], [78.419355, 17.399877], [78.419713, 17.399672], [78.419652, 17.399559], [78.419572, 17.399454], [78.419442, 17.399212], [78.418826, 17.399572], [78.418886, 17.399666], [78.418893, 17.399998], [78.418567, 17.400034], [78.41857, 17.400386], [78.418585, 17.400732], [78.418239, 17.400761], [78.418149, 17.40076], [78.417926, 17.400772], [78.417204, 17.400917], [78.41714, 17.400959], [78.417301, 17.40257], [78.417217, 17.402789], [78.417144, 17.403082], [78.417114, 17.403094], [78.417121, 17.40317], [78.417176, 17.403168], [78.417933, 17.403442], [78.418402, 17.40361], [78.418409, 17.403622], [78.418425, 17.403633], [78.418599, 17.403726], [78.419066, 17.403777], [78.419213, 17.404236], [78.419287, 17.404406], [78.419338, 17.404749], [78.419382, 17.40513], [78.419409, 17.405383], [78.419416, 17.405429], [78.419469, 17.405688], [78.419523, 17.405972], [78.419564, 17.406239], [78.419607, 17.406559], [78.419664, 17.406831], [78.419699, 17.407003], [78.419734, 17.407156], [78.419761, 17.407301], [78.419807, 17.407532], [78.419756, 17.407748], [78.419732, 17.407869], [78.419722, 17.407961], [78.419708, 17.40817], [78.419677, 17.408378], [78.419668, 17.408556], [78.419611, 17.40918], [78.420582, 17.410663], [78.42146, 17.410631], [78.421409, 17.410361], [78.421812, 17.410185], [78.423733, 17.409768], [78.423808, 17.409528], [78.423885, 17.409286], [78.424358, 17.409124], [78.42448, 17.409078], [78.425276, 17.408968], [78.425943, 17.40897], [78.426257, 17.408957], [78.426598, 17.408843], [78.428215, 17.40877], [78.428647, 17.408658], [78.42889, 17.408586], [78.429218, 17.408422], [78.430235, 17.407717], [78.430342, 17.407654], [78.430528, 17.407555], [78.430584, 17.407526], [78.431092, 17.407289], [78.431144, 17.407271], [78.43259, 17.407046], [78.433101, 17.406486], [78.433532, 17.406228], [78.43374, 17.406048], [78.43416, 17.405853], [78.434324, 17.404856], [78.434183, 17.404748], [78.434118, 17.404932], [78.433346, 17.404785], [78.434118, 17.404932], [78.434183, 17.404748], [78.435942, 17.404375], [78.436309, 17.404314], [78.436967, 17.404222], [78.438009, 17.404153], [78.438178, 17.404343], [78.438438, 17.404266], [78.438721, 17.404168], [78.439031, 17.404026], [78.439325, 17.403914], [78.439573, 17.403856], [78.43957, 17.403796], [78.439531, 17.40353], [78.439951, 17.403631], [78.440358, 17.403893], [78.440554, 17.404019], [78.440924, 17.404106], [78.441026, 17.40414], [78.442092, 17.40438], [78.442297, 17.404421], [78.442734, 17.404543], [78.443424, 17.404931], [78.443665, 17.405122], [78.443738, 17.405181], [78.444058, 17.405393], [78.44446, 17.405311], [78.444728, 17.405266], [78.445224, 17.405328], [78.445742, 17.405403], [78.446053, 17.405442], [78.446354, 17.405476], [78.446748, 17.405505], [78.447862, 17.405595], [78.451328, 17.407053], [78.45117, 17.407527], [78.450996, 17.40801], [78.450964, 17.408096], [78.450834, 17.408357], [78.450804, 17.408422], [78.450644, 17.408743], [78.449789, 17.412554], [78.450179, 17.414633], [78.449982, 17.414808], [78.449887, 17.414893], [78.449595, 17.415128], [78.448861, 17.416166], [78.448915, 17.417059], [78.448922, 17.417111], [78.448392, 17.418329], [78.448309, 17.41844], [78.448199, 17.418627], [78.447824, 17.419964], [78.447865, 17.420067], [78.447979, 17.420171], [78.448162, 17.420299], [78.448256, 17.420374], [78.448531, 17.420796], [78.448944, 17.421728], [78.448275, 17.424703], [78.448629, 17.425536], [78.448759, 17.425753], [78.448766, 17.4258], [78.4489, 17.425868], [78.448958, 17.425829], [78.4492, 17.425929], [78.449879, 17.426059], [78.450021, 17.426144], [78.451261, 17.426654], [78.451477, 17.426685], [78.451648, 17.426714], [78.452164, 17.426802], [78.452223, 17.42702], [78.451584, 17.42784], [78.449954, 17.430019], [78.449862, 17.430087], [78.448669, 17.430973], [78.447978, 17.431509], [78.448027, 17.431564], [78.448437, 17.431256], [78.448521, 17.431836], [78.449048, 17.432371], [78.449419, 17.43279], [78.448998, 17.433474], [78.44861, 17.433992], [78.448397, 17.434466], [78.448255, 17.434447], [78.448122, 17.43443], [78.448095, 17.434511], [78.447944, 17.435321], [78.447974, 17.435539], [78.447985, 17.435646], [78.448079, 17.436067], [78.448219, 17.436428], [78.448308, 17.437397], [78.448244, 17.437486], [78.448244, 17.437632], [78.448239, 17.438064], [78.448229, 17.438596], [78.448227, 17.439026], [78.448221, 17.43983], [78.448351, 17.441448], [78.448356, 17.44149], [78.448424, 17.442105], [78.448518, 17.44262], [78.448556, 17.442939], [78.448698, 17.443704], [78.448912, 17.445139], [78.448961, 17.445672], [78.448983, 17.445903], [78.449061, 17.446681], [78.44922, 17.447198], [78.449595, 17.448434], [78.449793, 17.448958], [78.450052, 17.449712], [78.45022, 17.450239], [78.450245, 17.451191], [78.450282, 17.451648], [78.450017, 17.455115], [78.450116, 17.45525], [78.450174, 17.458213], [78.449636, 17.45947], [78.449475, 17.460489], [78.449425, 17.46086], [78.449414, 17.461099], [78.449384, 17.46153], [78.449362, 17.46187], [78.449302, 17.462652], [78.449282, 17.462971], [78.449272, 17.463191], [78.449258, 17.463675], [78.449174, 17.464243], [78.449029, 17.464787], [78.448706, 17.465487], [78.448038, 17.465772], [78.44774, 17.46591], [78.446629, 17.466424], [78.446224, 17.466621], [78.445855, 17.466802], [78.445752, 17.466855], [78.445488, 17.466989], [78.444943, 17.467236], [78.444735, 17.467332], [78.44494, 17.467634], [78.44541, 17.467376], [78.446024, 17.467446], [78.446572, 17.469602], [78.446683, 17.470051], [78.446693, 17.470095], [78.447527, 17.473604], [78.447626, 17.473585]]}}, {"type": "Feature", "properties": {"vehicle": 4, "time_min": 64.642, "distance_km": 24.356, "co2_kg": 6.9634}, "geometry": {"type": "LineString", "coordinates": [[78.447626, 17.473585], [78.446662, 17.469585], [78.446262, 17.467945], [78.446224, 17.467761], [78.44609, 17.467166], [78.446063, 17.467083], [78.44671, 17.466752], [78.447557, 17.466333], [78.447921, 17.466177], [78.44774, 17.46591], [78.446629, 17.466424], [78.446224, 17.466621], [78.445855, 17.466802], [78.445752, 17.466855], [78.445488, 17.466989], [78.444943, 17.467236], [78.444735, 17.467332], [78.444431, 17.467471], [78.444056, 17.467644], [78.4425, 17.46826], [78.442223, 17.468456], [78.441485, 17.468713], [78.440403, 17.469085], [78.439727, 17.469312], [78.438053, 17.46991], [78.437433, 17.470102], [78.437174, 17.469655], [78.436888, 17.469189], [78.436776, 17.469002], [78.4356, 17.469369], [78.435314, 17.468574], [78.433963, 17.468048], [78.433988, 17.467423], [78.431811, 17.467796], [78.431574, 17.467849], [78.43091, 17.467996], [78.430364, 17.468133], [78.42977, 17.467336], [78.429487, 17.467083], [78.429192, 17.466761], [78.429318, 17.466511], [78.432723, 17.459116], [78.433011, 17.458491], [78.432878, 17.458436], [78.432578, 17.459105], [78.432462, 17.459062], [78.431111, 17.458579], [78.43032, 17.458264], [78.429911, 17.458096], [78.429276, 17.45778], [78.429086, 17.457546], [78.428682, 17.457118], [78.428308, 17.456682], [78.427752, 17.456046], [78.427316, 17.455546], [78.426736, 17.455158], [78.426152, 17.45531], [78.426128, 17.454516], [78.424681, 17.454495], [78.424587, 17.454439], [78.424083, 17.454387], [78.423326, 17.454272], [78.42264, 17.454176], [78.422501, 17.454153], [78.42145, 17.454036], [78.421233, 17.454021], [78.421136, 17.454015], [78.420896, 17.454005], [78.420472, 17.453976], [78.420403, 17.453971], [78.42034, 17.453969], [78.419915, 17.453954], [78.419584, 17.453965], [78.418863, 17.453958], [78.418533, 17.453972], [78.418457, 17.453978], [78.418095, 17.454005], [78.417965, 17.454016], [78.417902, 17.45402], [78.417802, 17.454022], [78.417645, 17.454032], [78.417598, 17.454036], [78.417459, 17.454041], [78.416912, 17.454082], [78.416326, 17.454186], [78.416078, 17.45422], [78.41567, 17.453864], [78.41558, 17.453773], [78.415443, 17.453709], [78.415412, 17.453692], [78.415188, 17.453622], [78.414949, 17.453563], [78.414828, 17.453541], [78.414688, 17.453505], [78.414557, 17.453474], [78.414367, 17.45343], [78.41414, 17.453411], [78.414028, 17.453403], [78.413891, 17.453406], [78.413661, 17.453422], [78.413441, 17.453445], [78.413218, 17.453464], [78.413009, 17.453499], [78.411789, 17.453899], [78.411585, 17.453967], [78.411292, 17.45408], [78.410989, 17.454187], [78.410794, 17.454258], [78.41, 17.454549], [78.409914, 17.45434], [78.409833, 17.454145], [78.409526, 17.454244], [78.408935, 17.453488], [78.408857, 17.453445], [78.408654, 17.453238], [78.40853, 17.453085], [78.408078, 17.452784], [78.407238, 17.452123], [78.40719, 17.45208], [78.406958, 17.451928], [78.406683, 17.451707], [78.406577, 17.451628], [78.406421, 17.451505], [78.40604, 17.451186], [78.405962, 17.451173], [78.405405, 17.450597], [78.405151, 17.450603], [78.404268, 17.450559], [78.403675, 17.450661], [78.4031, 17.450763], [78.40225, 17.450892], [78.402155, 17.450868], [78.400742, 17.451017], [78.400199, 17.450678], [78.399449, 17.449756], [78.399808, 17.449568], [78.399543, 17.44918], [78.399947, 17.44877], [78.399543, 17.44918], [78.398804, 17.449631], [78.398472, 17.44889], [78.399073, 17.448632], [78.398883, 17.448264], [78.398483, 17.447186], [78.398101, 17.445828], [78.397686, 17.444463], [78.397278, 17.443093], [78.397147, 17.442752], [78.396637, 17.441967], [78.397154, 17.441638], [78.397344, 17.441397], [78.397617, 17.441026], [78.397719, 17.440887], [78.398482, 17.439888], [78.398801, 17.439461], [78.399273, 17.438914], [78.399367, 17.438809], [78.400847, 17.436736], [78.401851, 17.435535], [78.401965, 17.435472], [78.404273, 17.434264], [78.40483, 17.433979], [78.405175, 17.435203], [78.405577, 17.43624], [78.405998, 17.437569], [78.405808, 17.438676], [78.40735, 17.438674], [78.407799, 17.439714], [78.408458, 17.440538], [78.407458, 17.441362], [78.408458, 17.440538], [78.407799, 17.439714], [78.40735, 17.438674], [78.405808, 17.438676], [78.405998, 17.437569], [78.405577, 17.43624], [78.405175, 17.435203], [78.406322, 17.434635], [78.406489, 17.434553], [78.407676, 17.435289], [78.407934, 17.434826], [78.407227, 17.433654], [78.407864, 17.433284], [78.410432, 17.435272], [78.412054, 17.435459], [78.414278, 17.434741], [78.415417, 17.434476], [78.416467, 17.434016], [78.417165, 17.433154], [78.418337, 17.432204], [78.420426, 17.431812], [78.420567, 17.431948], [78.421237, 17.431758], [78.4211, 17.43134], [78.422285, 17.431389], [78.422849, 17.431186], [78.423373, 17.430985], [78.423903, 17.430772], [78.424435, 17.430552], [78.425319, 17.430151], [78.42609, 17.431978], [78.426531, 17.433133], [78.42692, 17.43406], [78.427758, 17.436131], [78.428165, 17.436724], [78.428541, 17.436714], [78.431244, 17.4359], [78.432196, 17.436565], [78.432242, 17.436866], [78.431883, 17.437548], [78.431749, 17.437647], [78.43185, 17.437684], [78.431997, 17.437583], [78.432389, 17.437323], [78.432604, 17.437894], [78.432657, 17.438024], [78.43283, 17.438384], [78.432987, 17.438794], [78.433133, 17.439184], [78.433238, 17.439465], [78.43326, 17.439542], [78.434066, 17.439478], [78.434731, 17.439428], [78.434962, 17.439408], [78.43541, 17.439367], [78.435455, 17.439806], [78.436901, 17.439671], [78.437527, 17.439595], [78.437607, 17.440022], [78.438264, 17.439859], [78.438347, 17.439833], [78.438804, 17.439678], [78.438905, 17.439943], [78.439689, 17.43976], [78.439896, 17.439993], [78.440207, 17.43995], [78.440265, 17.439947], [78.440814, 17.439906], [78.441295, 17.43988], [78.441462, 17.43988], [78.441586, 17.439873], [78.442493, 17.439906], [78.441174, 17.442364], [78.441119, 17.44246], [78.440602, 17.443303], [78.44076, 17.443382], [78.441136, 17.442714], [78.441475, 17.44259], [78.441546, 17.442575], [78.441981, 17.442509], [78.442538, 17.442432], [78.44401, 17.442208], [78.445733, 17.441944], [78.446662, 17.441783], [78.447469, 17.441609], [78.447512, 17.441599], [78.448083, 17.441498], [78.448356, 17.44149], [78.448424, 17.442105], [78.448518, 17.44262], [78.448556, 17.442939], [78.448698, 17.443704], [78.448912, 17.445139], [78.448961, 17.445672], [78.448983, 17.445903], [78.449061, 17.446681], [78.44922, 17.447198], [78.449595, 17.448434], [78.449793, 17.448958], [78.450052, 17.449712], [78.45022, 17.450239], [78.450245, 17.451191], [78.450282, 17.451648], [78.450017, 17.455115], [78.450116, 17.45525], [78.450174, 17.458213], [78.449636, 17.45947], [78.449475, 17.460489], [78.449425, 17.46086], [78.449414, 17.461099], [78.449384, 17.46153], [78.449362, 17.46187], [78.449302, 17.462652], [78.449282, 17.462971], [78.449272, 17.463191], [78.449258, 17.463675], [78.449174, 17.464243], [78.449029, 17.464787], [78.448706, 17.465487], [78.448038, 17.465772], [78.44774, 17.46591], [78.446629, 17.466424], [78.446224, 17.466621], [78.445855, 17.466802], [78.445752, 17.466855], [78.445488, 17.466989], [78.444943, 17.467236], [78.444735, 17.467332], [78.44494, 17.467634], [78.44541, 17.467376], [78.446024, 17.467446], [78.446572, 17.469602], [78.446683, 17.470051], [78.446693, 17.470095], [78.447527, 17.473604], [78.447626, 17.473585]]}}, {"type": "Feature", "properties": {"vehicle": 5, "time_min": 100.727, "distance_km": 37.806, "co2_kg": 10.8324}, "geometry": {"type": "LineString", "coordinates": [[78.447626, 17.473585], [78.446662, 17.469585], [78.446262, 17.467945], [78.446224, 17.467761], [78.44609, 17.467166], [78.446063, 17.467083], [78.44671, 17.466752], [78.447557, 17.466333], [78.447921, 17.466177], [78.44774, 17.46591], [78.446629, 17.466424], [78.446224, 17.466621], [78.445855, 17.466802], [78.445752, 17.466855], [78.445488, 17.466989], [78.444943, 17.467236], [78.444735, 17.467332], [78.444431, 17.467471], [78.444056, 17.467644], [78.4425, 17.46826], [78.442223, 17.468456], [78.441485, 17.468713], [78.440403, 17.469085], [78.439727, 17.469312], [78.438053, 17.46991], [78.437433, 17.470102], [78.437174, 17.469655], [78.436888, 17.469189], [78.436776, 17.469002], [78.4356, 17.469369], [78.435314, 17.468574], [78.433963, 17.468048], [78.433988, 17.467423], [78.431811, 17.467796], [78.431574, 17.467849], [78.43091, 17.467996], [78.430364, 17.468133], [78.42977, 17.467336], [78.429487, 17.467083], [78.429192, 17.466761], [78.429318, 17.466511], [78.432723, 17.459116], [78.433011, 17.458491], [78.432878, 17.458436], [78.432578, 17.459105], [78.432462, 17.459062], [78.431111, 17.458579], [78.43032, 17.458264], [78.429911, 17.458096], [78.429276, 17.45778], [78.429086, 17.457546], [78.428682, 17.457118], [78.428308, 17.456682], [78.427752, 17.456046], [78.427316, 17.455546], [78.426736, 17.455158], [78.426152, 17.45531], [78.426128, 17.454516], [78.424681, 17.454495], [78.424587, 17.454439], [78.424083, 17.454387], [78.423326, 17.454272], [78.42264, 17.454176], [78.422501, 17.454153], [78.42145, 17.454036], [78.421233, 17.454021], [78.421136, 17.454015], [78.420896, 17.454005], [78.420472, 17.453976], [78.420403, 17.453971], [78.42034, 17.453969], [78.419915, 17.453954], [78.419584, 17.453965], [78.418863, 17.453958], [78.418533, 17.453972], [78.418457, 17.453978], [78.418095, 17.454005], [78.417965, 17.454016], [78.417902, 17.45402], [78.417802, 17.454022], [78.417645, 17.454032], [78.417598, 17.454036], [78.417459, 17.454041], [78.416912, 17.454082], [78.416326, 17.454186], [78.416078, 17.45422], [78.41567, 17.453864], [78.41558, 17.453773], [78.415443, 17.453709], [78.415412, 17.453692], [78.415188, 17.453622], [78.414949, 17.453563], [78.414828, 17.453541], [78.414688, 17.453505], [78.414557, 17.453474], [78.414367, 17.45343], [78.41414, 17.453411], [78.414028, 17.453403], [78.413891, 17.453406], [78.413661, 17.453422], [78.413441, 17.453445], [78.413218, 17.453464], [78.413009, 17.453499], [78.411789, 17.453899], [78.411585, 17.453967], [78.411292, 17.45408], [78.410989, 17.454187], [78.410794, 17.454258], [78.41, 17.454549], [78.409914, 17.45434], [78.409833, 17.454145], [78.409526, 17.454244], [78.408935, 17.453488], [78.408857, 17.453445], [78.408654, 17.453238], [78.40853, 17.453085], [78.408078, 17.452784], [78.407238, 17.452123], [78.40719, 17.45208], [78.406958, 17.451928], [78.406683, 17.451707], [78.406577, 17.451628], [78.406421, 17.451505], [78.40604, 17.451186], [78.405962, 17.451173], [78.405405, 17.450597], [78.405151, 17.450603], [78.404268, 17.450559], [78.403675, 17.450661], [78.4031, 17.450763], [78.40225, 17.450892], [78.402155, 17.450868], [78.400742, 17.451017], [78.399317, 17.451161], [78.398782, 17.451215], [78.398362, 17.451251], [78.397143, 17.451363], [78.396638, 17.451409], [78.396534, 17.451422], [78.394102, 17.451673], [78.393582, 17.451716], [78.393001, 17.451762], [78.392668, 17.451791], [78.391582, 17.451897], [78.390925, 17.451949], [78.389452, 17.452093], [78.387728, 17.452252], [78.387548, 17.452271], [78.387469, 17.452275], [78.387098, 17.45231], [78.386636, 17.452355], [78.385917, 17.452424], [78.382416, 17.452724], [78.382044, 17.452359], [78.381615, 17.451879], [78.381262, 17.451485], [78.381157, 17.451401], [78.380758, 17.451137], [78.380604, 17.45104], [78.379548, 17.450236], [78.379459, 17.449896], [78.379181, 17.448752], [78.378831, 17.448121], [78.378277, 17.447527], [78.377764, 17.446712], [78.377421, 17.445934], [78.377253, 17.441418], [78.377368, 17.441158], [78.37738, 17.4409], [78.377419, 17.439999], [78.376998, 17.440001], [78.377011, 17.441322], [78.376095, 17.441307], [78.375577, 17.441299], [78.37556, 17.44217], [78.375378, 17.442169], [78.375033, 17.442172], [78.37484, 17.442175], [78.374843, 17.442679], [78.37484, 17.442175], [78.375033, 17.442172], [78.375378, 17.442169], [78.37556, 17.44217], [78.376095, 17.442184], [78.377136, 17.442195], [78.37711, 17.443422], [78.374314, 17.447984], [78.37403, 17.44857], [78.372417, 17.450308], [78.372339, 17.450385], [78.372406, 17.450449], [78.373328, 17.451154], [78.374914, 17.451133], [78.373328, 17.451154], [78.372484, 17.450367], [78.372417, 17.450308], [78.372339, 17.450385], [78.369872, 17.45221], [78.370452, 17.452971], [78.371474, 17.454355], [78.37089, 17.454591], [78.370773, 17.454639], [78.370492, 17.454743], [78.370069, 17.454901], [78.369239, 17.455279], [78.369904, 17.456347], [78.369976, 17.45648], [78.368962, 17.456789], [78.369144, 17.457521], [78.369302, 17.458253], [78.366534, 17.458802], [78.366237, 17.458941], [78.365985, 17.458966], [78.365992, 17.459032], [78.365557, 17.459107], [78.365197, 17.459132], [78.365062, 17.459144], [78.365077, 17.459246], [78.364776, 17.459807], [78.36479, 17.459945], [78.364378, 17.460221], [78.3642, 17.460273], [78.364378, 17.460221], [78.36479, 17.459945], [78.364776, 17.459807], [78.365077, 17.459246], [78.365062, 17.459144], [78.365197, 17.459132], [78.365557, 17.459107], [78.365992, 17.459032], [78.366001, 17.459098], [78.36606, 17.459484], [78.366375, 17.4604], [78.366596, 17.460868], [78.366906, 17.461539], [78.366995, 17.462355], [78.366735, 17.462394], [78.366654, 17.462403], [78.366325, 17.462449], [78.366217, 17.462464], [78.365843, 17.462515], [78.365468, 17.462568], [78.365394, 17.462576], [78.365048, 17.462616], [78.364972, 17.462625], [78.365111, 17.463713], [78.364686, 17.463765], [78.364346, 17.463374], [78.364686, 17.463765], [78.365028, 17.464824], [78.365097, 17.465057], [78.364922, 17.465213], [78.36411, 17.466059], [78.364922, 17.465213], [78.365097, 17.465057], [78.365409, 17.465681], [78.365559, 17.465958], [78.366213, 17.46575], [78.36733, 17.465955], [78.367306, 17.466153], [78.367245, 17.466397], [78.367177, 17.466631], [78.367096, 17.466853], [78.367001, 17.467099], [78.366848, 17.467465], [78.367003, 17.467493], [78.367018, 17.467459], [78.367426, 17.464966], [78.367908, 17.464782], [78.367991, 17.464754], [78.368402, 17.464549], [78.368906, 17.464258], [78.369267, 17.46403], [78.369433, 17.463942], [78.369641, 17.463832], [78.369743, 17.463846], [78.370832, 17.46509], [78.37141, 17.465283], [78.371598, 17.465342], [78.372708, 17.46583], [78.374035, 17.464858], [78.375391, 17.46446], [78.375576, 17.464341], [78.375636, 17.464316], [78.375744, 17.464272], [78.375856, 17.464242], [78.37647, 17.464288], [78.377098, 17.464274], [78.377755, 17.464221], [78.378493, 17.464045], [78.379096, 17.463818], [78.379186, 17.463787], [78.382353, 17.463222], [78.382413, 17.463211], [78.384859, 17.462838], [78.38524, 17.462794], [78.385241, 17.462814], [78.388175, 17.474185], [78.388746, 17.47521], [78.38918, 17.475837], [78.390025, 17.477013], [78.390356, 17.478407], [78.389538, 17.48085], [78.38946, 17.480907], [78.389563, 17.483594], [78.389815, 17.484224], [78.389794, 17.484385], [78.38998, 17.484548], [78.390029, 17.484664], [78.390281, 17.485237], [78.389674, 17.485687], [78.389004, 17.486822], [78.388522, 17.486519], [78.388462, 17.486477], [78.388022, 17.487131], [78.387722, 17.487592], [78.387219, 17.488405], [78.386798, 17.489054], [78.385966, 17.490341], [78.385688, 17.490794], [78.385586, 17.490953], [78.385412, 17.491249], [78.385672, 17.491238], [78.386094, 17.491164], [78.386534, 17.491091], [78.386772, 17.492418], [78.386849, 17.492832], [78.386924, 17.493237], [78.386999, 17.493677], [78.38708, 17.494072], [78.386999, 17.493677], [78.386924, 17.493237], [78.386849, 17.492832], [78.386772, 17.492418], [78.386534, 17.491091], [78.386094, 17.491164], [78.385672, 17.491238], [78.385412, 17.491249], [78.385779, 17.490761], [78.386061, 17.490327], [78.386676, 17.489372], [78.386858, 17.48909], [78.386996, 17.488885], [78.387279, 17.48844], [78.3878, 17.487637], [78.388085, 17.487202], [78.388226, 17.48697], [78.388522, 17.486519], [78.389004, 17.486822], [78.389674, 17.485687], [78.390281, 17.485237], [78.390699, 17.486241], [78.390907, 17.486154], [78.390694, 17.485626], [78.390568, 17.485329], [78.390968, 17.485191], [78.391338, 17.485051], [78.391595, 17.484954], [78.391662, 17.485117], [78.392034, 17.484993], [78.392081, 17.485084], [78.392504, 17.484895], [78.392725, 17.485319], [78.392936, 17.485723], [78.39339, 17.486594], [78.39347, 17.48675], [78.393626, 17.486998], [78.394713, 17.486466], [78.394842, 17.486708], [78.394959, 17.486951], [78.39509, 17.487206], [78.395293, 17.487551], [78.395456, 17.487482], [78.395629, 17.48778], [78.395724, 17.487971], [78.39635, 17.487691], [78.396449, 17.487885], [78.396552, 17.488085], [78.396648, 17.488274], [78.397572, 17.487862], [78.39773, 17.488188], [78.397977, 17.488626], [78.398684, 17.488313], [78.39928, 17.488006], [78.398684, 17.488313], [78.398912, 17.488769], [78.399006, 17.488956], [78.399107, 17.489156], [78.399209, 17.489359], [78.399309, 17.489558], [78.399405, 17.48975], [78.399506, 17.489952], [78.399603, 17.490144], [78.399709, 17.490355], [78.399802, 17.490541], [78.399976, 17.490886], [78.400161, 17.491256], [78.400281, 17.491494], [78.400407, 17.491746], [78.400536, 17.492001], [78.40066, 17.492248], [78.400783, 17.492494], [78.400901, 17.49272], [78.401027, 17.492972], [78.401154, 17.493232], [78.401329, 17.49358], [78.401461, 17.493852], [78.399861, 17.494568], [78.398887, 17.495009], [78.397989, 17.495419], [78.398106, 17.495571], [78.399727, 17.494853], [78.399772, 17.494947], [78.401564, 17.497945], [78.399772, 17.494947], [78.399727, 17.494853], [78.40276, 17.493426], [78.403965, 17.492856], [78.404454, 17.492668], [78.405456, 17.492182], [78.405725, 17.492055], [78.405985, 17.491927], [78.407017, 17.491314], [78.407483, 17.490865], [78.407924, 17.490316], [78.408552, 17.489505], [78.409021, 17.489854], [78.409387, 17.490134], [78.409511, 17.490221], [78.409722, 17.490372], [78.409854, 17.490546], [78.40987, 17.490589], [78.409927, 17.490774], [78.41134, 17.490373], [78.411662, 17.491191], [78.41134, 17.490373], [78.411241, 17.490112], [78.41098, 17.489394], [78.410857, 17.489058], [78.410578, 17.489141], [78.41037, 17.488766], [78.410192, 17.488387], [78.410175, 17.488358], [78.409995, 17.488114], [78.409784, 17.487918], [78.410287, 17.487174], [78.41103, 17.486061], [78.41228, 17.484339], [78.412526, 17.484016], [78.413015, 17.483624], [78.413318, 17.483407], [78.413466, 17.483308], [78.413889, 17.483066], [78.41409, 17.482941], [78.41455, 17.482657], [78.414728, 17.482546], [78.414852, 17.482475], [78.416212, 17.481613], [78.417248, 17.480513], [78.418164, 17.479672], [78.41834, 17.47951], [78.420083, 17.478205], [78.420975, 17.477569], [78.421492, 17.477242], [78.422003, 17.476886], [78.422984, 17.476225], [78.424144, 17.475506], [78.426226, 17.474284], [78.426307, 17.474233], [78.427509, 17.473648], [78.428102, 17.473318], [78.428184, 17.47327], [78.428378, 17.473174], [78.428827, 17.472996], [78.42925, 17.472857], [78.442112, 17.468617], [78.442274, 17.468561], [78.444613, 17.467777], [78.44494, 17.467634], [78.44541, 17.467376], [78.446024, 17.467446], [78.446572, 17.469602], [78.446683, 17.470051], [78.446693, 17.470095], [78.447527, 17.473604], [78.447626, 17.473585]]}}, {"type": "Feature", "properties": {"vehicle": 6, "time_min": 126.37, "distance_km": 52.853, "co2_kg": 14.2104}, "geometry": {"type": "LineString", "coordinates": [[78.447626, 17.473585], [78.446662, 17.469585], [78.446262, 17.467945], [78.446224, 17.467761], [78.44609, 17.467166], [78.446063, 17.467083], [78.44671, 17.466752], [78.447557, 17.466333], [78.447921, 17.466177], [78.448612, 17.465825], [78.448878, 17.465694], [78.449042, 17.465617], [78.449195, 17.465551], [78.449375, 17.465471], [78.45026, 17.465071], [78.450114, 17.46479], [78.449082, 17.465296], [78.44911, 17.464761], [78.449357, 17.463192], [78.44937, 17.463003], [78.449419, 17.461879], [78.449437, 17.461569], [78.449514, 17.460428], [78.449564, 17.460021], [78.449668, 17.45948], [78.449871, 17.459073], [78.450078, 17.458664], [78.450225, 17.458233], [78.450329, 17.451645], [78.450273, 17.450221], [78.449976, 17.449278], [78.449872, 17.448947], [78.449688, 17.448411], [78.449585, 17.44808], [78.449294, 17.44717], [78.449121, 17.446668], [78.449032, 17.445655], [78.44899, 17.445103], [78.448945, 17.444696], [78.448918, 17.444434], [78.449283, 17.444305], [78.449477, 17.444232], [78.450413, 17.443953], [78.450598, 17.443891], [78.45102, 17.44375], [78.452046, 17.443443], [78.451671, 17.442677], [78.451389, 17.442105], [78.451152, 17.441663], [78.451134, 17.441298], [78.451152, 17.44113], [78.450956, 17.439178], [78.450688, 17.438565], [78.45041, 17.437943], [78.450322, 17.437658], [78.450348, 17.436496], [78.450352, 17.436082], [78.450358, 17.435565], [78.450364, 17.434938], [78.450383, 17.434855], [78.449555, 17.434641], [78.448397, 17.434466], [78.44861, 17.433992], [78.448998, 17.433474], [78.449419, 17.43279], [78.449485, 17.431979], [78.44924, 17.431256], [78.449196, 17.43119], [78.448957, 17.430867], [78.449954, 17.430156], [78.450408, 17.429778], [78.451391, 17.428366], [78.451715, 17.427922], [78.451948, 17.427603], [78.452292, 17.427104], [78.452392, 17.426957], [78.452518, 17.426755], [78.45281, 17.426245], [78.453085, 17.42576], [78.453224, 17.425521], [78.453769, 17.424563], [78.453976, 17.424168], [78.454961, 17.422463], [78.455, 17.422398], [78.455322, 17.421864], [78.455686, 17.421304], [78.456061, 17.420719], [78.456362, 17.42024], [78.456808, 17.419553], [78.456998, 17.419208], [78.457191, 17.417995], [78.457693, 17.416227], [78.459596, 17.413767], [78.459885, 17.4136], [78.460051, 17.413493], [78.460112, 17.413421], [78.460195, 17.413318], [78.460457, 17.412856], [78.460982, 17.411016], [78.460874, 17.409942], [78.460848, 17.409876], [78.460597, 17.409078], [78.460535, 17.408508], [78.460523, 17.408253], [78.460543, 17.407865], [78.460736, 17.407183], [78.461094, 17.406982], [78.46172, 17.406796], [78.462567, 17.40656], [78.462772, 17.406391], [78.463548, 17.405597], [78.463688, 17.40544], [78.463894, 17.405232], [78.464047, 17.405078], [78.464172, 17.404945], [78.46428, 17.404822], [78.464458, 17.404618], [78.465097, 17.403905], [78.465194, 17.40381], [78.465801, 17.403171], [78.467588, 17.402745], [78.467897, 17.402712], [78.468112, 17.402646], [78.47027, 17.401097], [78.470391, 17.400926], [78.470398, 17.400919], [78.470415, 17.400897], [78.470479, 17.400701], [78.470464, 17.400648], [78.470956, 17.39946], [78.471052, 17.399275], [78.47115, 17.399111], [78.471843, 17.398726], [78.471819, 17.398592], [78.471869, 17.398236], [78.472744, 17.396523], [78.473102, 17.394935], [78.473742, 17.394923], [78.475553, 17.39498], [78.475642, 17.395011], [78.476013, 17.394295], [78.476209, 17.393641], [78.47622, 17.393426], [78.476165, 17.39327], [78.476184, 17.392468], [78.476179, 17.392084], [78.476178, 17.391851], [78.476169, 17.391553], [78.476176, 17.391147], [78.47626, 17.390204], [78.475189, 17.390312], [78.474899, 17.390355], [78.474877, 17.390164], [78.474899, 17.390355], [78.475189, 17.390312], [78.47626, 17.390204], [78.476332, 17.389819], [78.47644, 17.389192], [78.476806, 17.388412], [78.47696, 17.388119], [78.477201, 17.387765], [78.478025, 17.386928], [78.47894, 17.386152], [78.4794, 17.385858], [78.47951, 17.385837], [78.479957, 17.385752], [78.480114, 17.385727], [78.480403, 17.385662], [78.480669, 17.385582], [78.481007, 17.385538], [78.481546, 17.385473], [78.482327, 17.38534], [78.482613, 17.385293], [78.483218, 17.385169], [78.483476, 17.385121], [78.4839, 17.385042], [78.484109, 17.385025], [78.484425, 17.384998], [78.485296, 17.384993], [78.485962, 17.384939], [78.487052, 17.384864], [78.487497, 17.38487], [78.487639, 17.384871], [78.487731, 17.384872], [78.48814, 17.384863], [78.489207, 17.384689], [78.489618, 17.384609], [78.489797, 17.384574], [78.49058, 17.384371], [78.490629, 17.384323], [78.490824, 17.383779], [78.491576, 17.381639], [78.491675, 17.381159], [78.491906, 17.38104], [78.49233, 17.381183], [78.49236, 17.38109], [78.493141, 17.379283], [78.493159, 17.379246], [78.493229, 17.379086], [78.493413, 17.378457], [78.493907, 17.37724], [78.494648, 17.377179], [78.495301, 17.377091], [78.495934, 17.376782], [78.496627, 17.3758], [78.498105, 17.375399], [78.498268, 17.375322], [78.498357, 17.375281], [78.498601, 17.375121], [78.498659, 17.375073], [78.499621, 17.374377], [78.499968, 17.374208], [78.500268, 17.374058], [78.502442, 17.373564], [78.502776, 17.373514], [78.503039, 17.373472], [78.505258, 17.373171], [78.506347, 17.37302], [78.507355, 17.372844], [78.509514, 17.372231], [78.51047, 17.371896], [78.510966, 17.371673], [78.513002, 17.370512], [78.514871, 17.3699], [78.514968, 17.369891], [78.51517, 17.369851], [78.5172, 17.369392], [78.517757, 17.369256], [78.51952, 17.368858], [78.519858, 17.368799], [78.519841, 17.368633], [78.518821, 17.368839], [78.518871, 17.3687], [78.519055, 17.368496], [78.519828, 17.367809], [78.519891, 17.367736], [78.519984, 17.367628], [78.520192, 17.36739], [78.520316, 17.367254], [78.52044, 17.367075], [78.52086, 17.366473], [78.521304, 17.365675], [78.521418, 17.365494], [78.521563, 17.365077], [78.521591, 17.364865], [78.521657, 17.364257], [78.521683, 17.364128], [78.521705, 17.363826], [78.521743, 17.363522], [78.521799, 17.36307], [78.521904, 17.362618], [78.522202, 17.361895], [78.522282, 17.361698], [78.522532, 17.36129], [78.522889, 17.361047], [78.52402, 17.359937], [78.524206, 17.359548], [78.524229, 17.359375], [78.524236, 17.359275], [78.526958, 17.357887], [78.527776, 17.357503], [78.528393, 17.357279], [78.52961, 17.356867], [78.530066, 17.356653], [78.530231, 17.356559], [78.531391, 17.355294], [78.531672, 17.355064], [78.532152, 17.354598], [78.532235, 17.354527], [78.532766, 17.35412], [78.533029, 17.35398], [78.534162, 17.353534], [78.53458, 17.353368], [78.53515, 17.353093], [78.535629, 17.352842], [78.536108, 17.352542], [78.536785, 17.352152], [78.536842, 17.352124], [78.537203, 17.351935], [78.537345, 17.351864], [78.537677, 17.35173], [78.538064, 17.351573], [78.538165, 17.351528], [78.538862, 17.351309], [78.540163, 17.350776], [78.540517, 17.350628], [78.540676, 17.350555], [78.54112, 17.350333], [78.541301, 17.350249], [78.541647, 17.350074], [78.542046, 17.349895], [78.5425, 17.349714], [78.543139, 17.349449], [78.544621, 17.348687], [78.545656, 17.348084], [78.546046, 17.347964], [78.546494, 17.347842], [78.547441, 17.347586], [78.547314, 17.347108], [78.547738, 17.346996], [78.547626, 17.346598], [78.547368, 17.345586], [78.546942, 17.345678], [78.54635, 17.345787], [78.545677, 17.345914], [78.545646, 17.34586], [78.545501, 17.345458], [78.545444, 17.345183], [78.545353, 17.344862], [78.5452, 17.344497], [78.545152, 17.34431], [78.54513, 17.344232], [78.544998, 17.343799], [78.544907, 17.343397], [78.544793, 17.342973], [78.545206, 17.342857], [78.545825, 17.342621], [78.546346, 17.342349], [78.54685, 17.342142], [78.546758, 17.342053], [78.546223, 17.341585], [78.54585, 17.341268], [78.545503, 17.340945], [78.544991, 17.340497], [78.54521, 17.34025], [78.545316, 17.340129], [78.545495, 17.339953], [78.545547, 17.339902], [78.545796, 17.339672], [78.546076, 17.339523], [78.546819, 17.339396], [78.54759, 17.339325], [78.547564, 17.338888], [78.54788, 17.33885], [78.548276, 17.338832], [78.547828, 17.338286], [78.547776, 17.338024], [78.547514, 17.338059], [78.547416, 17.337628], [78.547334, 17.337226], [78.547269, 17.336831], [78.547331, 17.336826], [78.547695, 17.336783], [78.548002, 17.33673], [78.54833, 17.336673], [78.548603, 17.336631], [78.54867, 17.336624], [78.54896, 17.336594], [78.549528, 17.336534], [78.549956, 17.33647], [78.550341, 17.33643], [78.550928, 17.336418], [78.550337, 17.336927], [78.54924, 17.338039], [78.548654, 17.338851], [78.5485, 17.339253], [78.547915, 17.340927], [78.547567, 17.341751], [78.54751, 17.341798], [78.546998, 17.341989], [78.546758, 17.342053], [78.546333, 17.342263], [78.546029, 17.342432], [78.545719, 17.342609], [78.545184, 17.342801], [78.545206, 17.342857], [78.545825, 17.342621], [78.546346, 17.342349], [78.54685, 17.342142], [78.547137, 17.34207], [78.547634, 17.341843], [78.549796, 17.341577], [78.54996, 17.341555], [78.552547, 17.341737], [78.552857, 17.341767], [78.552987, 17.341766], [78.553252, 17.341805], [78.553638, 17.342363], [78.553831, 17.342646], [78.554275, 17.343291], [78.554647, 17.343829], [78.554698, 17.34389], [78.554387, 17.344088], [78.548642, 17.348758], [78.548268, 17.34922], [78.547027, 17.350826], [78.546948, 17.350928], [78.546089, 17.35313], [78.54604, 17.353322], [78.545434, 17.35572], [78.544825, 17.357972], [78.544475, 17.359361], [78.544108, 17.360759], [78.543449, 17.363205], [78.542966, 17.364475], [78.542892, 17.364613], [78.541253, 17.366557], [78.540102, 17.367318], [78.539849, 17.367459], [78.53978, 17.367484], [78.538697, 17.367884], [78.53818, 17.368024], [78.537926, 17.368085], [78.53313, 17.368291], [78.532209, 17.368316], [78.532059, 17.368322], [78.531123, 17.368354], [78.530741, 17.368362], [78.530729, 17.367723], [78.530244, 17.367734], [78.529741, 17.367745], [78.529748, 17.368387], [78.52899, 17.368404], [78.528574, 17.368412], [78.527531, 17.368432], [78.527383, 17.368432], [78.527384, 17.368588], [78.527663, 17.368581], [78.527708, 17.369273], [78.527723, 17.369571], [78.526762, 17.369624], [78.526224, 17.369152], [78.525549, 17.369184], [78.525388, 17.368611], [78.525549, 17.369184], [78.526286, 17.370453], [78.526023, 17.37136], [78.525787, 17.371445], [78.5249, 17.371812], [78.52497, 17.372136], [78.524994, 17.372277], [78.524245, 17.37249], [78.524314, 17.372903], [78.524362, 17.373148], [78.524383, 17.373293], [78.524446, 17.373522], [78.523945, 17.373611], [78.52349, 17.37369], [78.52333, 17.373723], [78.523102, 17.373792], [78.52322, 17.374284], [78.522429, 17.374521], [78.522458, 17.37464], [78.521992, 17.374787], [78.521526, 17.374946], [78.521693, 17.375436], [78.521258, 17.375572], [78.520638, 17.375756], [78.519898, 17.375976], [78.519464, 17.376091], [78.519525, 17.376336], [78.519622, 17.376726], [78.518762, 17.376954], [78.518193, 17.377104], [78.518283, 17.377285], [78.518011, 17.377453], [78.517954, 17.377487], [78.517789, 17.377587], [78.517598, 17.377703], [78.517278, 17.377897], [78.516891, 17.378133], [78.516503, 17.378368], [78.516055, 17.378645], [78.515321, 17.377477], [78.515233, 17.377527], [78.516012, 17.378678], [78.517357, 17.380386], [78.51776, 17.380903], [78.518143, 17.381464], [78.518228, 17.38201], [78.518224, 17.382131], [78.518352, 17.382122], [78.518405, 17.382113], [78.518642, 17.382031], [78.519303, 17.381821], [78.519375, 17.381795], [78.519633, 17.381723], [78.519747, 17.382105], [78.519788, 17.38223], [78.519747, 17.382105], [78.519633, 17.381723], [78.519375, 17.381795], [78.519303, 17.381821], [78.518642, 17.382031], [78.518366, 17.382], [78.518228, 17.38201], [78.517366, 17.382662], [78.516619, 17.383314], [78.516469, 17.383461], [78.516248, 17.383657], [78.515391, 17.384425], [78.514987, 17.384782], [78.514874, 17.38488], [78.514777, 17.384954], [78.514582, 17.385111], [78.514366, 17.385309], [78.514119, 17.38552], [78.5129, 17.386588], [78.512679, 17.386779], [78.5126, 17.386844], [78.512216, 17.38715], [78.51174, 17.387329], [78.511079, 17.387541], [78.508908, 17.38797], [78.507704, 17.387938], [78.506883, 17.38794], [78.506593, 17.388021], [78.506488, 17.388241], [78.506389, 17.388867], [78.506349, 17.389233], [78.505974, 17.389176], [78.505851, 17.389156], [78.505792, 17.389424], [78.505832, 17.389523], [78.505344, 17.389865], [78.505036, 17.38975], [78.504359, 17.389271], [78.504113, 17.389044], [78.504042, 17.388957], [78.503593, 17.388395], [78.503261, 17.388095], [78.50315, 17.388022], [78.50295, 17.387904], [78.501718, 17.387163], [78.501291, 17.386934], [78.501162, 17.386844], [78.500932, 17.386696], [78.499704, 17.385911], [78.499569, 17.385828], [78.497996, 17.384645], [78.497565, 17.384295], [78.497159, 17.383954], [78.495916, 17.383087], [78.495765, 17.38302], [78.495434, 17.382874], [78.494923, 17.38266], [78.494527, 17.382487], [78.493358, 17.38214], [78.49236, 17.38109], [78.491727, 17.380863], [78.491631, 17.380839], [78.491255, 17.380759], [78.489842, 17.380666], [78.488906, 17.380577], [78.48508, 17.380662], [78.485016, 17.380655], [78.48493, 17.380725], [78.482996, 17.381414], [78.481663, 17.38203], [78.481064, 17.382334], [78.480575, 17.382564], [78.479879, 17.382894], [78.478056, 17.383129], [78.47787, 17.38315], [78.475671, 17.383517], [78.475612, 17.383534], [78.475205, 17.38367], [78.475091, 17.383733], [78.474789, 17.383958], [78.47457, 17.384138], [78.474473, 17.384245], [78.474149, 17.384603], [78.473884, 17.384917], [78.472774, 17.384189], [78.473884, 17.384917], [78.472972, 17.386176], [78.472483, 17.386825], [78.47165, 17.387997], [78.471368, 17.388387], [78.470944, 17.388979], [78.470831, 17.38913], [78.47023, 17.389936], [78.470204, 17.389965], [78.470071, 17.390093], [78.470014, 17.390206], [78.470006, 17.391177], [78.470012, 17.391303], [78.470026, 17.391808], [78.47008, 17.392557], [78.470117, 17.393028], [78.470352, 17.394726], [78.470433, 17.394932], [78.470946, 17.396095], [78.470798, 17.399036], [78.470774, 17.399136], [78.470714, 17.399355], [78.470038, 17.400483], [78.469959, 17.400545], [78.46807, 17.40246], [78.467883, 17.402546], [78.466261, 17.402824], [78.464986, 17.403775], [78.464758, 17.403957], [78.46407, 17.403932], [78.463358, 17.40344], [78.462723, 17.403017], [78.462425, 17.402915], [78.461932, 17.403372], [78.461563, 17.404031], [78.460708, 17.406545], [78.460629, 17.406776], [78.460547, 17.407147], [78.460451, 17.407522], [78.460416, 17.408156], [78.46047, 17.408709], [78.460534, 17.409267], [78.460551, 17.409349], [78.460757, 17.409898], [78.460788, 17.409973], [78.460927, 17.410541], [78.460859, 17.411228], [78.460392, 17.412716], [78.460172, 17.413038], [78.460129, 17.413091], [78.45992, 17.413325], [78.45988, 17.413365], [78.459779, 17.41345], [78.459518, 17.41367], [78.458989, 17.41401], [78.457594, 17.416146], [78.457191, 17.417176], [78.45715, 17.41732], [78.457136, 17.417484], [78.457118, 17.417707], [78.456702, 17.41951], [78.454908, 17.422341], [78.454864, 17.422416], [78.453918, 17.424066], [78.453699, 17.424476], [78.453087, 17.425504], [78.452982, 17.425711], [78.452609, 17.426375], [78.452421, 17.426689], [78.452306, 17.426885], [78.452223, 17.42702], [78.451584, 17.42784], [78.449954, 17.430019], [78.449862, 17.430087], [78.448669, 17.430973], [78.447978, 17.431509], [78.448027, 17.431564], [78.448437, 17.431256], [78.448521, 17.431836], [78.449048, 17.432371], [78.449419, 17.43279], [78.448998, 17.433474], [78.44861, 17.433992], [78.448397, 17.434466], [78.448255, 17.434447], [78.448122, 17.43443], [78.448095, 17.434511], [78.447944, 17.435321], [78.447974, 17.435539], [78.447985, 17.435646], [78.448079, 17.436067], [78.448219, 17.436428], [78.448308, 17.437397], [78.448244, 17.437486], [78.448244, 17.437632], [78.448239, 17.438064], [78.448229, 17.438596], [78.448227, 17.439026], [78.448221, 17.43983], [78.448351, 17.441448], [78.448356, 17.44149], [78.448424, 17.442105], [78.448518, 17.44262], [78.448556, 17.442939], [78.448698, 17.443704], [78.448912, 17.445139], [78.448961, 17.445672], [78.448983, 17.445903], [78.449061, 17.446681], [78.44922, 17.447198], [78.449595, 17.448434], [78.449793, 17.448958], [78.450052, 17.449712], [78.45022, 17.450239], [78.450245, 17.451191], [78.450282, 17.451648], [78.450017, 17.455115], [78.450116, 17.45525], [78.450174, 17.458213], [78.449636, 17.45947], [78.449475, 17.460489], [78.449425, 17.46086], [78.449414, 17.461099], [78.449384, 17.46153], [78.449362, 17.46187], [78.449302, 17.462652], [78.449282, 17.462971], [78.449272, 17.463191], [78.449258, 17.463675], [78.449174, 17.464243], [78.449029, 17.464787], [78.448706, 17.465487], [78.448038, 17.465772], [78.44774, 17.46591], [78.446629, 17.466424], [78.446224, 17.466621], [78.445855, 17.466802], [78.445752, 17.466855], [78.445488, 17.466989], [78.444943, 17.467236], [78.444735, 17.467332], [78.44494, 17.467634], [78.44541, 17.467376], [78.446024, 17.467446], [78.446572, 17.469602], [78.446683, 17.470051], [78.446693, 17.470095], [78.447527, 17.473604], [78.447626, 17.473585]]}}]}